{"type":"FeatureCollection","features":[{"type":"Feature","properties":{"id":"EFR11","name":"SANTAHAMINA","type":"R","upper":"1300 FT MSL","lower":"SFC","activity":"MILOPS","time":"H24","fill":"#ff0000","fill-opacity":0.5,"stroke":"#ff0000","stroke-width":1.5},"geometry":{"type":"Polygon","coordinates":[[[25.041944,60.155278],[25.080556,60.1525],[25.080556,60.129167],[25.019444,60.129167],[25.019444,60.133889],[25.041944,60.155278]]]}},{"type":"Feature","properties":{"id":"EFR12","name":"KEMIÖ","type":"R","upper":"3000 FT MSL","lower":"SFC","activity":"MILOPS, UAV","time":"H24","fill":"#ff0000","fill-opacity":0.5,"stroke":"#ff0000","stroke-width":1.5},"geometry":{"type":"Polygon","coordinates":[[[22.396667,60.148889],[22.546667,60.159722],[22.544167,60.153056],[22.444444,60.109722],[22.359167,60.113611],[22.396667,60.148889]]]}},{"type":"Feature","properties":{"id":"EFR35","name":"MÄKILUOTO","type":"R","upper":"2000 FT MSL","lower":"SFC","activity":"MILOPS","time":"H24","fill":"#ff0000","fill-opacity":0.5,"stroke":"#ff0000","stroke-width":1.5},"geometry":{"type":"Polygon","coordinates":[[[24.302778,59.941944],[24.403611,59.941944],[24.403611,59.908611],[24.302778,59.869444],[24.302778,59.941944]]]}},{"type":"Feature","properties":{"id":"EFR37","name":"UPINNIEMI","type":"R","upper":"2000 FT MSL","lower":"SFC","activity":"MILOPS","time":"H24","fill":"#ff0000","fill-opacity":0.5,"stroke":"#ff0000","stroke-width":1.5},"geometry":{"type":"Polygon","coordinates":[[[24.302778,60.0475],[24.403611,60.0475],[24.403611,59.981111],[24.302778,59.981111],[24.302778,60.0475]]]}},{"type":"Feature","properties":{"id":"EFR43","name":"HÄSTÖ-BUSÖ","type":"R","upper":"2000 FT MSL","lower":"SFC","activity":"MILOPS","time":"H24","fill":"#ff0000","fill-opacity":0.5,"stroke":"#ff0000","stroke-width":1.5},"geometry":{"type":"Polygon","coordinates":[[[23.28,59.85],[23.380278,59.85],[23.380278,59.83],[23.28,59.83],[23.28,59.85]]]}},{"type":"Feature","properties":{"id":"EFR45","name":"RUSSARÖ","type":"R","upper":"2000 FT MSL","lower":"SFC","activity":"MILOPS","time":"H24","fill":"#ff0000","fill-opacity":0.5,"stroke":"#ff0000","stroke-width":1.5},"geometry":{"type":"Polygon","coordinates":[[[22.896667,59.783333],[22.963333,59.783333],[22.963333,59.75],[22.896667,59.75],[22.896667,59.783333]]]}},{"type":"Feature","properties":{"id":"EFR54","name":"KORPPOO-GYLTÖ","type":"R","upper":"2000 FT MSL","lower":"SFC","activity":"MILOPS","time":"H24","fill":"#ff0000","fill-opacity":0.5,"stroke":"#ff0000","stroke-width":1.5},"geometry":{"type":"Polygon","coordinates":[[[21.448056,60.133333],[21.521667,60.133333],[21.516667,60.100833],[21.386944,60.100833],[21.448056,60.133333]]]}},{"type":"Feature","properties":{"id":"EFR56","name":"KIRKONMAA-RANKKI","type":"R","upper":"FL 250","lower":"SFC","activity":"MILOPS","time":"NOTAM","fill":"#ff0000","fill-opacity":0.5,"stroke":"#ff0000","stroke-width":1.5},"geometry":{"type":"Polygon","coordinates":[[[26.813611,60.383611],[27.130278,60.383611],[27.176667,60.281944],[26.813611,60.315278],[26.813611,60.383611]]]}},{"type":"Feature","properties":{"id":"EFR57","name":"KIRKONMAA-RANKKI","type":"R","upper":"FL 250","lower":"SFC","activity":"MILOPS","time":"NOTAM","fill":"#ff0000","fill-opacity":0.5,"stroke":"#ff0000","stroke-width":1.5},"geometry":{"type":"Polygon","coordinates":[[[26.813611,60.315278],[27.176667,60.281944],[27.196667,60.238056],[26.796111,60.275],[26.813611,60.315278]]]}},{"type":"Feature","properties":{"id":"EFR58","name":"KIRKONMAA-RANKKI","type":"R","upper":"FL 250","lower":"SFC","activity":"MILOPS","time":"NOTAM","fill":"#ff0000","fill-opacity":0.5,"stroke":"#ff0000","stroke-width":1.5},"geometry":{"type":"Polygon","coordinates":[[[26.796111,60.275],[27.196667,60.238056],[27.213611,60.200278],[26.763611,60.200278],[26.796111,60.275]]]}},{"type":"Feature","properties":{"id":"EFR59","name":"HAMINA","type":"R","upper":"4000 FT MSL","lower":"SFC","activity":"MILOPS","time":"NOTAM","fill":"#ff0000","fill-opacity":0.5,"stroke":"#ff0000","stroke-width":1.5},"geometry":{"type":"Polygon","coordinates":[[[27.600833,60.678889],[27.597778,60.521944],[27.233611,60.523056],[27.2725,60.672222],[27.600833,60.678889]]]}},{"type":"Feature","properties":{"id":"EFR60","name":"KUIVASSALMI","type":"R","upper":"FL 170","lower":"SFC","activity":"MILOPS","time":"NOTAM","fill":"#ff0000","fill-opacity":0.5,"stroke":"#ff0000","stroke-width":1.5},"geometry":{"type":"Polygon","coordinates":[[[29.083333,64.846667],[29.209722,64.844722],[29.205833,64.8],[29.083333,64.810833],[29.083333,64.846667]]]}},{"type":"Feature","properties":{"id":"EFR61","name":"JUKAJÄRVI","type":"R","upper":"FL 170","lower":"SFC","activity":"MILOPS, UAV","time":"NOTAM","fill":"#ff0000","fill-opacity":0.5,"stroke":"#ff0000","stroke-width":1.5},"geometry":{"type":"Polygon","coordinates":[[[28.9175,61.518056],[28.804722,61.519722],[28.808333,61.5825],[28.939444,61.571667],[28.9175,61.518056]]]}},{"type":"Feature","properties":{"id":"EFR63","name":"KARKIALAMPI","type":"R","upper":"2300 FT MSL","lower":"SFC","activity":"MILOPS","time":"NOTAM","fill":"#ff0000","fill-opacity":0.5,"stroke":"#ff0000","stroke-width":1.5},"geometry":{"type":"Polygon","coordinates":[[[27.161667,61.833611],[27.261667,61.833611],[27.261667,61.751944],[27.236667,61.703611],[27.208333,61.708611],[27.161667,61.750278],[27.161667,61.833611]]]}},{"type":"Feature","properties":{"id":"EFR64A","name":"SANTAHAMINA","type":"R","upper":"FL 250","lower":"SFC","activity":"MILOPS","time":"NOTAM","fill":"#ff0000","fill-opacity":0.5,"stroke":"#ff0000","stroke-width":1.5},"geometry":{"type":"Polygon","coordinates":[[[25.041944,60.155278],[25.116667,60.15],[25.096944,60.112778],[24.996944,60.112778],[25.041944,60.155278]]]}},{"type":"Feature","properties":{"id":"EFR64B","name":"SANTAHAMINA","type":"R","upper":"FL 250","lower":"SFC","activity":"MILOPS","time":"NOTAM","fill":"#ff0000","fill-opacity":0.5,"stroke":"#ff0000","stroke-width":1.5},"geometry":{"type":"Polygon","coordinates":[[[25.116667,60.15],[25.180278,60.146944],[25.223611,60.125278],[25.194444,60.101111],[25.096944,60.112778],[25.116667,60.15]]]}},{"type":"Feature","properties":{"id":"EFR65","name":"ISOSAARI","type":"R","upper":"FL 390","lower":"SFC","activity":"MILOPS","time":"NOTAM","fill":"#ff0000","fill-opacity":0.5,"stroke":"#ff0000","stroke-width":1.5},"geometry":{"type":"Polygon","coordinates":[[[24.996944,60.112778],[25.096944,60.112778],[25.096944,60.086944],[24.996944,60.086944],[24.996944,60.112778]]]}},{"type":"Feature","properties":{"id":"EFR66","name":"ISOSAARI","type":"R","upper":"FL 390","lower":"SFC","activity":"MILOPS","time":"NOTAM","fill":"#ff0000","fill-opacity":0.5,"stroke":"#ff0000","stroke-width":1.5},"geometry":{"type":"Polygon","coordinates":[[[25.096944,60.112778],[25.194444,60.101111],[25.096944,60.086944],[25.096944,60.112778]]]}},{"type":"Feature","properties":{"id":"EFR67","name":"ISOSAARI","type":"R","upper":"FL 390","lower":"SFC","activity":"MILOPS","time":"NOTAM","fill":"#ff0000","fill-opacity":0.5,"stroke":"#ff0000","stroke-width":1.5},"geometry":{"type":"Polygon","coordinates":[[[24.996944,60.086944],[25.096944,60.086944],[25.194444,60.101111],[25.223611,60.125278],[25.383889,60.058611],[25.333611,60.000278],[24.996944,60.000278],[24.996944,60.086944]]]}},{"type":"Feature","properties":{"id":"EFR68","name":"HUKKAKERO","type":"R","upper":"FL 200","lower":"SFC","activity":"MILOPS","time":"NOTAM","fill":"#ff0000","fill-opacity":0.5,"stroke":"#ff0000","stroke-width":1.5},"geometry":{"type":"Polygon","coordinates":[[[25.958889,67.979444],[25.966389,67.886389],[25.720833,67.883611],[25.712222,67.976389],[25.958889,67.979444]]]}},{"type":"Feature","properties":{"id":"EFR69","name":"HIUKKAVAARA","type":"R","upper":"FL 170","lower":"SFC","activity":"MILOPS","time":"NOTAM","fill":"#ff0000","fill-opacity":0.5,"stroke":"#ff0000","stroke-width":1.5},"geometry":{"type":"Polygon","coordinates":[[[25.612778,65.041944],[25.704444,65.030278],[25.679722,65.016944],[25.587778,65.011944],[25.612778,65.041944]]]}},{"type":"Feature","properties":{"id":"EFR71","name":"HIIENVAARA (KOITERE)","type":"R","upper":"FL 170","lower":"SFC","activity":"MILOPS","time":"NOTAM","fill":"#ff0000","fill-opacity":0.5,"stroke":"#ff0000","stroke-width":1.5},"geometry":{"type":"Polygon","coordinates":[[[30.580278,63.100556],[30.680278,63.100556],[30.680278,63.050556],[30.580278,63.050556],[30.580278,63.100556]]]}},{"type":"Feature","properties":{"id":"EFR72","name":"SOTINPURO","type":"R","upper":"FL 250","lower":"SFC","activity":"MILOPS","time":"NOTAM","fill":"#ff0000","fill-opacity":0.5,"stroke":"#ff0000","stroke-width":1.5},"geometry":{"type":"Polygon","coordinates":[[[28.573333,63.533333],[28.791667,63.471944],[28.775,63.416667],[28.616667,63.395278],[28.5,63.463611],[28.573333,63.533333]]]}},{"type":"Feature","properties":{"id":"EFR73A","name":"POHJANKANGAS","type":"R","upper":"FL 95","lower":"SFC","activity":"MILOPS","time":"NOTAM","fill":"#ff0000","fill-opacity":0.5,"stroke":"#ff0000","stroke-width":1.5},"geometry":{"type":"Polygon","coordinates":[[[22.555556,62.124444],[22.776389,61.9325],[22.470833,61.719444],[22.283056,61.799167],[22.223056,62.017222],[22.555556,62.124444]]]}},{"type":"Feature","properties":{"id":"EFR73B","name":"POHJANKANGAS","type":"R","upper":"FL 95","lower":"3500 FT MSL","activity":"MILOPS","time":"NOTAM","fill":"#ff0000","fill-opacity":0.5,"stroke":"#ff0000","stroke-width":1.5},"geometry":{"type":"Polygon","coordinates":[[[22.0,62.166667],[22.508333,62.166667],[22.555556,62.124444],[22.223056,62.017222],[22.283056,61.799167],[22.470833,61.719444],[22.165833,61.746389],[22.001667,61.834722],[22.0,62.166667]]]}},{"type":"Feature","properties":{"id":"EFR73C","name":"POHJANKANGAS","type":"R","upper":"FL 95","lower":"3500 FT MSL","activity":"MILOPS","time":"NOTAM","fill":"#ff0000","fill-opacity":0.5,"stroke":"#ff0000","stroke-width":1.5},"geometry":{"type":"Polygon","coordinates":[[[22.0,62.510278],[22.100833,62.510278],[22.508333,62.166667],[22.0,62.166667],[22.0,62.510278]]]}},{"type":"Feature","properties":{"id":"EFR75","name":"MÄKILUOTO","type":"R","upper":"FL 250","lower":"SFC","activity":"MILOPS","time":"NOTAM","fill":"#ff0000","fill-opacity":0.5,"stroke":"#ff0000","stroke-width":1.5},"geometry":{"type":"Polygon","coordinates":[[[24.302778,59.941944],[24.403611,59.941944],[24.403611,59.908611],[24.302778,59.869444],[24.302778,59.941944]]]}},{"type":"Feature","properties":{"id":"EFR77","name":"UPINNIEMI","type":"R","upper":"FL 390","lower":"SFC","activity":"MILOPS","time":"NOTAM","fill":"#ff0000","fill-opacity":0.5,"stroke":"#ff0000","stroke-width":1.5},"geometry":{"type":"Polygon","coordinates":[[[24.013611,59.933333],[24.302778,60.0475],[24.403611,60.0475],[24.403611,59.941944],[24.302778,59.941944],[24.258611,59.922778],[24.013611,59.933333]]]}},{"type":"Feature","properties":{"id":"EFR78A","name":"HÄSTÖ-BUSÖ","type":"R","upper":"FL 250","lower":"SFC","activity":"MILOPS","time":"NOTAM","fill":"#ff0000","fill-opacity":0.5,"stroke":"#ff0000","stroke-width":1.5},"geometry":{"type":"Polygon","coordinates":[[[23.380278,59.83],[23.530278,59.83],[23.530278,59.683333],[23.446944,59.683333],[23.380278,59.83]]]}},{"type":"Feature","properties":{"id":"EFR78B","name":"HÄSTÖ-BUSÖ","type":"R","upper":"FL 250","lower":"SFC","activity":"MILOPS","time":"NOTAM","fill":"#ff0000","fill-opacity":0.5,"stroke":"#ff0000","stroke-width":1.5},"geometry":{"type":"Polygon","coordinates":[[[23.380278,59.85],[23.530278,59.85],[23.530278,59.83],[23.380278,59.83],[23.380278,59.85]]]}},{"type":"Feature","properties":{"id":"EFR79","name":"HÄSTÖ-BUSÖ","type":"R","upper":"FL 250","lower":"SFC","activity":"MILOPS","time":"NOTAM","fill":"#ff0000","fill-opacity":0.5,"stroke":"#ff0000","stroke-width":1.5},"geometry":{"type":"Polygon","coordinates":[[[23.28,59.85],[23.380278,59.85],[23.380278,59.83],[23.446944,59.683333],[23.205278,59.683333],[23.28,59.83],[23.28,59.85]]]}},{"type":"Feature","properties":{"id":"EFR80A","name":"RUSSARÖ","type":"R","upper":"FL 250","lower":"SFC","activity":"MILOPS","time":"NOTAM","fill":"#ff0000","fill-opacity":0.5,"stroke":"#ff0000","stroke-width":1.5},"geometry":{"type":"Polygon","coordinates":[[[23.13,59.823333],[23.25,59.828611],[23.28,59.83],[23.205278,59.683333],[23.088611,59.683333],[23.13,59.823333]]]}},{"type":"Feature","properties":{"id":"EFR80B","name":"RUSSARÖ","type":"R","upper":"FL 250","lower":"SFC","activity":"MILOPS","time":"NOTAM","fill":"#ff0000","fill-opacity":0.5,"stroke":"#ff0000","stroke-width":1.5},"geometry":{"type":"Polygon","coordinates":[[[22.905,59.813333],[23.13,59.823333],[23.088611,59.683333],[22.963333,59.75],[22.963333,59.783333],[22.896667,59.783333],[22.905,59.813333]]]}},{"type":"Feature","properties":{"id":"EFR81","name":"RUSSARÖ","type":"R","upper":"FL 250","lower":"SFC","activity":"MILOPS","time":"NOTAM","fill":"#ff0000","fill-opacity":0.5,"stroke":"#ff0000","stroke-width":1.5},"geometry":{"type":"Polygon","coordinates":[[[22.896667,59.783333],[22.963333,59.783333],[22.963333,59.75],[22.896667,59.75],[22.896667,59.783333]]]}},{"type":"Feature","properties":{"id":"EFR83","name":"SYNDALEN","type":"R","upper":"FL 170","lower":"SFC","activity":"MILOPS","time":"NOTAM","fill":"#ff0000","fill-opacity":0.5,"stroke":"#ff0000","stroke-width":1.5},"geometry":{"type":"Polygon","coordinates":[[[23.165278,59.883333],[23.25,59.883333],[23.25,59.828611],[23.13,59.823333],[23.13,59.875],[23.165278,59.883333]]]}},{"type":"Feature","properties":{"id":"EFR84","name":"ÖRÖ","type":"R","upper":"FL 250","lower":"SFC","activity":"MILOPS","time":"NOTAM","fill":"#ff0000","fill-opacity":0.5,"stroke":"#ff0000","stroke-width":1.5},"geometry":{"type":"Polygon","coordinates":[[[22.263333,59.85],[22.33,59.85],[22.486667,59.733333],[22.163333,59.733333],[22.263333,59.85]]]}},{"type":"Feature","properties":{"id":"EFR85","name":"ÖRÖ","type":"R","upper":"FL 250","lower":"SFC","activity":"MILOPS","time":"NOTAM","fill":"#ff0000","fill-opacity":0.5,"stroke":"#ff0000","stroke-width":1.5},"geometry":{"type":"Polygon","coordinates":[[[22.163333,59.733333],[22.486667,59.733333],[22.613333,59.633333],[22.08,59.633333],[22.163333,59.733333]]]}},{"type":"Feature","properties":{"id":"EFR86","name":"MÄKILUOTO","type":"R","upper":"UNL","lower":"SFC","activity":"MILOPS","time":"NOTAM","fill":"#ff0000","fill-opacity":0.5,"stroke":"#ff0000","stroke-width":1.5},"geometry":{"type":"Polygon","coordinates":[[[24.302778,59.941944],[24.302778,59.869444],[24.114167,59.798333],[23.994167,59.752778],[23.984722,59.751389],[24.013611,59.933333],[24.258611,59.922778],[24.302778,59.941944]]]}},{"type":"Feature","properties":{"id":"EFR87","name":"UTÖ","type":"R","upper":"FL 250","lower":"SFC","activity":"MILOPS","time":"NOTAM","fill":"#ff0000","fill-opacity":0.5,"stroke":"#ff0000","stroke-width":1.5},"geometry":{"type":"Polygon","coordinates":[[[21.295833,59.808333],[21.413333,59.808333],[21.588333,59.773333],[21.23,59.593333],[21.163333,59.638333],[21.295833,59.808333]]]}},{"type":"Feature","properties":{"id":"EFR88","name":"KORPPOO-GYLTÖ","type":"R","upper":"FL 170","lower":"SFC","activity":"MILOPS","time":"NOTAM","fill":"#ff0000","fill-opacity":0.5,"stroke":"#ff0000","stroke-width":1.5},"geometry":{"type":"Polygon","coordinates":[[[21.448056,60.133333],[21.521667,60.133333],[21.496667,59.966667],[21.213333,60.008333],[21.448056,60.133333]]]}},{"type":"Feature","properties":{"id":"EFR89","name":"REILA","type":"R","upper":"FL 390","lower":"SFC","activity":"MILOPS","time":"NOTAM","fill":"#ff0000","fill-opacity":0.5,"stroke":"#ff0000","stroke-width":1.5},"geometry":{"type":"Polygon","coordinates":[[[20.963333,61.166667],[21.396667,61.15],[21.396667,61.041667],[20.963333,60.95],[20.963333,61.166667]]]}},{"type":"Feature","properties":{"id":"EFR91","name":"RAASI","type":"R","upper":"3000 FT MSL","lower":"SFC","activity":"MILOPS","time":"NOTAM","fill":"#ff0000","fill-opacity":0.5,"stroke":"#ff0000","stroke-width":1.5},"geometry":{"type":"Polygon","coordinates":[[[22.363333,60.786111],[22.3925,60.783333],[22.3925,60.775],[22.363333,60.775],[22.363333,60.786111]]]}},{"type":"Feature","properties":{"id":"EFR92A","name":"ROVAJÄRVI","type":"R","upper":"UNL","lower":"SFC","activity":"MILOPS","time":"NOTAM","fill":"#ff0000","fill-opacity":0.5,"stroke":"#ff0000","stroke-width":1.5},"geometry":{"type":"Polygon","coordinates":[[[26.326111,66.695556],[26.451111,66.637222],[26.307778,66.610556],[26.241111,66.648889],[26.326111,66.695556]]]}},{"type":"Feature","properties":{"id":"EFR92B","name":"ROVAJÄRVI","type":"R","upper":"UNL","lower":"SFC","activity":"MILOPS","time":"NOTAM","fill":"#ff0000","fill-opacity":0.5,"stroke":"#ff0000","stroke-width":1.5},"geometry":{"type":"Polygon","coordinates":[[[26.592222,66.661111],[26.451111,66.637222],[26.326111,66.695556],[26.274444,66.847222],[26.338611,66.923611],[26.553889,66.935833],[26.592222,66.661111]]]}},{"type":"Feature","properties":{"id":"EFR92C","name":"ROVAJÄRVI","type":"R","upper":"UNL","lower":"SFC","activity":"MILOPS","time":"NOTAM","fill":"#ff0000","fill-opacity":0.5,"stroke":"#ff0000","stroke-width":1.5},"geometry":{"type":"Polygon","coordinates":[[[26.841389,66.700278],[26.592222,66.661111],[26.553889,66.935833],[26.839722,66.951389],[26.749167,66.834722],[26.841389,66.700278]]]}},{"type":"Feature","properties":{"id":"EFR92D","name":"ROVAJÄRVI","type":"R","upper":"UNL","lower":"SFC","activity":"MILOPS","time":"NOTAM","fill":"#ff0000","fill-opacity":0.5,"stroke":"#ff0000","stroke-width":1.5},"geometry":{"type":"Polygon","coordinates":[[[27.109444,66.7175],[26.841389,66.700278],[26.749167,66.834722],[26.839722,66.951389],[27.113889,66.835],[27.109444,66.7175]]]}},{"type":"Feature","properties":{"id":"EFR92E","name":"ROVAJÄRVI","type":"R","upper":"UNL","lower":"SFC","activity":"MILOPS","time":"NOTAM","fill":"#ff0000","fill-opacity":0.5,"stroke":"#ff0000","stroke-width":1.5},"geometry":{"type":"Polygon","coordinates":[[[26.338611,66.923611],[26.390556,66.985556],[26.585,67.058333],[26.839722,66.951389],[26.553889,66.935833],[26.338611,66.923611]]]}},{"type":"Feature","properties":{"id":"EFR93A","name":"NIINISALO","type":"R","upper":"UNL","lower":"SFC","activity":"MILOPS","time":"NOTAM","fill":"#ff0000","fill-opacity":0.5,"stroke":"#ff0000","stroke-width":1.5},"geometry":{"type":"Polygon","coordinates":[[[22.354167,62.013611],[22.504167,62.033611],[22.500278,61.988889],[22.511667,61.957778],[22.49,61.859167],[22.414167,61.843056],[22.404167,61.922778],[22.354167,62.013611]]]}},{"type":"Feature","properties":{"id":"EFR93B","name":"NIINISALO","type":"R","upper":"UNL","lower":"SFC","activity":"MILOPS","time":"NOTAM","fill":"#ff0000","fill-opacity":0.5,"stroke":"#ff0000","stroke-width":1.5},"geometry":{"type":"Polygon","coordinates":[[[22.338889,62.043889],[22.498333,62.058889],[22.504167,62.033611],[22.354167,62.013611],[22.338889,62.043889]]]}},{"type":"Feature","properties":{"id":"EFR94","name":"HÄTILÄ","type":"R","upper":"FL 170","lower":"SFC","activity":"MILOPS","time":"NOTAM","fill":"#ff0000","fill-opacity":0.5,"stroke":"#ff0000","stroke-width":1.5},"geometry":{"type":"Polygon","coordinates":[[[24.505278,61.042222],[24.624444,61.060833],[24.671944,61.053611],[24.631667,61.042778],[24.586389,61.021944],[24.524167,61.025],[24.505278,61.042222]]]}},{"type":"Feature","properties":{"id":"EFR95","name":"HÄLVÄLÄ","type":"R","upper":"FL 170","lower":"SFC","activity":"MILOPS","time":"NOTAM","fill":"#ff0000","fill-opacity":0.5,"stroke":"#ff0000","stroke-width":1.5},"geometry":{"type":"Polygon","coordinates":[[[25.446944,61.028889],[25.498056,61.028889],[25.499722,60.998333],[25.419167,60.998889],[25.446944,61.028889]]]}},{"type":"Feature","properties":{"id":"EFR96","name":"VUORISJÄRVI","type":"R","upper":"3300 FT MSL","lower":"SFC","activity":"MILOPS","time":"NOTAM","fill":"#ff0000","fill-opacity":0.5,"stroke":"#ff0000","stroke-width":1.5},"geometry":{"type":"Polygon","coordinates":[[[24.837222,62.064722],[24.865833,62.071667],[24.878056,62.058611],[24.849167,62.051111],[24.837222,62.064722]]]}},{"type":"Feature","properties":{"id":"EFR97","name":"KEURUU","type":"R","upper":"4300 FT MSL","lower":"SFC","activity":"MILOPS","time":"NOTAM","fill":"#ff0000","fill-opacity":0.5,"stroke":"#ff0000","stroke-width":1.5},"geometry":{"type":"Polygon","coordinates":[[[24.608333,62.258611],[24.63,62.261944],[24.67,62.250278],[24.658333,62.228611],[24.611667,62.238611],[24.608333,62.258611]]]}},{"type":"Feature","properties":{"id":"EFR98","name":"ÄHTÄRI","type":"R","upper":"4300 FT MSL","lower":"SFC","activity":"MILOPS","time":"NOTAM","fill":"#ff0000","fill-opacity":0.5,"stroke":"#ff0000","stroke-width":1.5},"geometry":{"type":"Polygon","coordinates":[[[24.506944,62.625556],[24.508889,62.606667],[24.468056,62.605556],[24.465833,62.624444],[24.506944,62.625556]]]}},{"type":"Feature","properties":{"id":"EFR99A","name":"LOHTAJA","type":"R","upper":"UNL","lower":"SFC","activity":"MILOPS","time":"NOTAM","fill":"#ff0000","fill-opacity":0.5,"stroke":"#ff0000","stroke-width":1.5},"geometry":{"type":"Polygon","coordinates":[[[23.523056,64.3825],[23.566667,64.193333],[23.463056,64.000278],[22.846389,63.950278],[23.446111,64.333611],[23.523056,64.3825]]]}},{"type":"Feature","properties":{"id":"EFR99B","name":"LOHTAJA","type":"R","upper":"UNL","lower":"SFC","activity":"MILOPS","time":"NOTAM","fill":"#ff0000","fill-opacity":0.5,"stroke":"#ff0000","stroke-width":1.5},"geometry":{"type":"Polygon","coordinates":[[[23.463056,64.000278],[23.256667,63.953333],[22.846389,63.950278],[23.463056,64.000278]]]}},{"type":"Feature","properties":{"id":"EFR101","name":"ISOSAARI","type":"R","upper":"FL 390","lower":"SFC","activity":"MILOPS","time":"NOTAM","fill":"#ff0000","fill-opacity":0.5,"stroke":"#ff0000","stroke-width":1.5},"geometry":{"type":"Polygon","coordinates":[[[25.281389,59.938889],[25.169444,59.943333],[24.996944,59.9275],[24.996944,60.000278],[25.333611,60.000278],[25.281389,59.938889]]]}},{"type":"Feature","properties":{"id":"EFR102","name":"KUIVASAARI","type":"R","upper":"FL 390","lower":"SFC","activity":"MILOPS","time":"NOTAM","fill":"#ff0000","fill-opacity":0.5,"stroke":"#ff0000","stroke-width":1.5},"geometry":{"type":"Polygon","coordinates":[[[24.996944,59.9275],[24.93,59.921389],[24.82,59.898889],[24.932778,60.086944],[24.932778,60.106944],[24.996944,60.112778],[24.996944,60.086944],[24.996944,60.000278],[24.996944,59.9275]]]}},{"type":"Feature","properties":{"id":"EFR103","name":"KATAJALUOTO","type":"R","upper":"UNL","lower":"SFC","activity":"MILOPS","time":"NOTAM","fill":"#ff0000","fill-opacity":0.5,"stroke":"#ff0000","stroke-width":1.5},"geometry":{"type":"Polygon","coordinates":[[[24.819722,59.898889],[24.785278,59.891944],[24.746667,59.882222],[24.670556,60.018056],[24.885278,60.106944],[24.932778,60.106944],[24.932778,60.086944],[24.819722,59.898889]]]}},{"type":"Feature","properties":{"id":"EFR104","name":"KATAJALUOTO","type":"R","upper":"UNL","lower":"SFC","activity":"MILOPS","time":"NOTAM","fill":"#ff0000","fill-opacity":0.5,"stroke":"#ff0000","stroke-width":1.5},"geometry":{"type":"Polygon","coordinates":[[[24.746667,59.882222],[24.5975,59.844722],[24.531667,59.960833],[24.670556,60.018056],[24.746667,59.882222]]]}},{"type":"Feature","properties":{"id":"EFR105","name":"KATAJALUOTO","type":"R","upper":"UNL","lower":"SFC","activity":"MILOPS","time":"NOTAM","fill":"#ff0000","fill-opacity":0.5,"stroke":"#ff0000","stroke-width":1.5},"geometry":{"type":"Polygon","coordinates":[[[24.5975,59.844722],[24.488333,59.816944],[24.332222,59.796667],[24.302778,59.793889],[24.302778,59.869444],[24.403611,59.908611],[24.403611,59.941944],[24.485278,59.941944],[24.531667,59.960833],[24.5975,59.844722]]]}},{"type":"Feature","properties":{"id":"EFR106","name":"KATAJALUOTO","type":"R","upper":"UNL","lower":"SFC","activity":"MILOPS","time":"NOTAM","fill":"#ff0000","fill-opacity":0.5,"stroke":"#ff0000","stroke-width":1.5},"geometry":{"type":"Polygon","coordinates":[[[24.302778,59.793889],[24.206111,59.783611],[24.154722,59.776111],[24.114167,59.798333],[24.302778,59.869444],[24.302778,59.793889]]]}},{"type":"Feature","properties":{"id":"EFR107","name":"KATAJALUOTO","type":"R","upper":"UNL","lower":"SFC","activity":"MILOPS","time":"NOTAM","fill":"#ff0000","fill-opacity":0.5,"stroke":"#ff0000","stroke-width":1.5},"geometry":{"type":"Polygon","coordinates":[[[24.154722,59.776111],[23.994167,59.752778],[24.114167,59.798333],[24.154722,59.776111]]]}},{"type":"Feature","properties":{"id":"EFR108","name":"RUSSARÖ","type":"R","upper":"FL 250","lower":"SFC","activity":"MILOPS","time":"NOTAM","fill":"#ff0000","fill-opacity":0.5,"stroke":"#ff0000","stroke-width":1.5},"geometry":{"type":"Polygon","coordinates":[[[23.071667,59.645],[22.8575,59.635556],[22.703056,59.616389],[22.613333,59.633333],[22.514722,59.711389],[22.905,59.813333],[22.896667,59.783333],[22.896667,59.75],[22.963333,59.75],[23.088611,59.683333],[23.071667,59.645]]]}},{"type":"Feature","properties":{"id":"EFR109","name":"ÖRÖ","type":"R","upper":"UNL","lower":"SFC","activity":"MILOPS","time":"NOTAM","fill":"#ff0000","fill-opacity":0.5,"stroke":"#ff0000","stroke-width":1.5},"geometry":{"type":"Polygon","coordinates":[[[22.703056,59.616389],[22.634444,59.608056],[22.396389,59.513056],[21.988611,59.496389],[22.08,59.633333],[22.613333,59.633333],[22.703056,59.616389]]]}},{"type":"Feature","properties":{"id":"EFR110","name":"ISOKARI","type":"R","upper":"UNL","lower":"SFC","activity":"MILOPS","time":"NOTAM","fill":"#ff0000","fill-opacity":0.5,"stroke":"#ff0000","stroke-width":1.5},"geometry":{"type":"Polygon","coordinates":[[[20.33,60.856667],[20.4375,60.901944],[20.771389,61.126944],[20.781667,61.166944],[20.963333,61.166667],[20.963333,60.95],[20.963333,60.766667],[20.33,60.766667],[20.33,60.856667]]]}},{"type":"Feature","properties":{"id":"EFR111","name":"ILVESKALLIO","type":"R","upper":"3600 FT MSL","lower":"SFC","activity":"MILOPS","time":"NOTAM","fill":"#ff0000","fill-opacity":0.5,"stroke":"#ff0000","stroke-width":1.5},"geometry":{"type":"Polygon","coordinates":[[[24.364444,61.051111],[24.407222,61.019444],[24.248889,60.961111],[24.198333,61.008056],[24.364444,61.051111]]]}},{"type":"Feature","properties":{"id":"EFR113","name":"HUOVINRINNE","type":"R","upper":"FL 190","lower":"SFC","activity":"MILOPS","time":"NOTAM","fill":"#ff0000","fill-opacity":0.5,"stroke":"#ff0000","stroke-width":1.5},"geometry":{"type":"Polygon","coordinates":[[[22.477222,61.061111],[22.516111,61.050278],[22.614722,61.033889],[22.619444,61.016667],[22.586667,60.980278],[22.458056,61.011944],[22.438333,61.031389],[22.477222,61.061111]]]}},{"type":"Feature","properties":{"id":"EFR114","name":"KASSUNKURU","type":"R","upper":"FL 170","lower":"SFC","activity":"MILOPS","time":"NOTAM","fill":"#ff0000","fill-opacity":0.5,"stroke":"#ff0000","stroke-width":1.5},"geometry":{"type":"Polygon","coordinates":[[[27.721389,64.181111],[27.713056,64.158611],[27.704722,64.123611],[27.636389,64.130278],[27.663056,64.158611],[27.681944,64.173056],[27.721389,64.181111]]]}},{"type":"Feature","properties":{"id":"EFR115","name":"KYLÄJÄRVI","type":"R","upper":"FL 170","lower":"SFC","activity":"MILOPS","time":"NOTAM","fill":"#ff0000","fill-opacity":0.5,"stroke":"#ff0000","stroke-width":1.5},"geometry":{"type":"Polygon","coordinates":[[[26.3125,67.402222],[26.3625,67.425556],[26.4125,67.417222],[26.479167,67.325556],[26.295833,67.325556],[26.3125,67.402222]]]}},{"type":"Feature","properties":{"id":"EFR116","name":"KYLÄJÄRVI","type":"R","upper":"FL 170","lower":"SFC","activity":"MILOPS","time":"NOTAM","fill":"#ff0000","fill-opacity":0.5,"stroke":"#ff0000","stroke-width":1.5},"geometry":{"type":"Polygon","coordinates":[[[26.4125,67.417222],[26.4625,67.417222],[26.595833,67.325556],[26.479167,67.325556],[26.4125,67.417222]]]}},{"type":"Feature","properties":{"id":"EFR118","name":"VUOSANKA","type":"R","upper":"FL 240","lower":"SFC","activity":"MILOPS","time":"NOTAM","fill":"#ff0000","fill-opacity":0.5,"stroke":"#ff0000","stroke-width":1.5},"geometry":{"type":"Polygon","coordinates":[[[28.896389,64.438611],[29.002222,64.437222],[29.060833,64.372778],[29.0575,64.330278],[28.916111,64.274722],[28.854167,64.275556],[28.775278,64.330278],[28.749167,64.425833],[28.827222,64.428333],[28.896389,64.438611]]]}},{"type":"Feature","properties":{"id":"EFR119A","name":"KERTTUVAARA","type":"R","upper":"FL 170","lower":"SFC","activity":"MILOPS, UAV","time":"NOTAM","fill":"#ff0000","fill-opacity":0.5,"stroke":"#ff0000","stroke-width":1.5},"geometry":{"type":"Polygon","coordinates":[[[27.579167,68.633889],[27.679167,68.633889],[27.679167,68.600556],[27.595833,68.600556],[27.579167,68.633889]]]}},{"type":"Feature","properties":{"id":"EFR119B","name":"KERTTUVAARA","type":"R","upper":"FL 170","lower":"SFC","activity":"MILOPS, UAV","time":"NOTAM","fill":"#ff0000","fill-opacity":0.5,"stroke":"#ff0000","stroke-width":1.5},"geometry":{"type":"Polygon","coordinates":[[[27.679167,68.633889],[27.763611,68.608889],[27.660278,68.576111],[27.635,68.600556],[27.679167,68.600556],[27.679167,68.633889]]]}},{"type":"Feature","properties":{"id":"EFR120","name":"TAIPALSAARI","type":"R","upper":"FL 250","lower":"SFC","activity":"MILOPS","time":"NOTAM","fill":"#ff0000","fill-opacity":0.5,"stroke":"#ff0000","stroke-width":1.5},"geometry":{"type":"Polygon","coordinates":[[[28.055833,61.316389],[28.186389,61.225833],[28.013056,61.178611],[27.843333,61.221667],[27.846944,61.264167],[28.055833,61.316389]]]}},{"type":"Feature","properties":{"id":"EFR122A","name":"LOHTAJA","type":"R","upper":"UNL","lower":"SFC","activity":"MILOPS","time":"NOTAM","fill":"#ff0000","fill-opacity":0.5,"stroke":"#ff0000","stroke-width":1.5},"geometry":{"type":"Polygon","coordinates":[[[22.311389,64.024167],[22.342778,64.044167],[22.390833,64.069167],[22.481111,64.1025],[22.545278,64.123889],[22.566111,64.129722],[22.778889,64.178889],[22.877222,64.201111],[22.961111,64.22],[22.976389,64.303611],[22.9875,64.360556],[22.993889,64.376111],[23.006944,64.396667],[23.0225,64.413889],[23.053056,64.439167],[23.446111,64.333611],[22.846389,63.950278],[22.553333,63.937222],[22.466667,63.933333],[22.311389,64.024167]]]}},{"type":"Feature","properties":{"id":"EFR122B","name":"LOHTAJA","type":"R","upper":"UNL","lower":"SFC","activity":"MILOPS","time":"NOTAM","fill":"#ff0000","fill-opacity":0.5,"stroke":"#ff0000","stroke-width":1.5},"geometry":{"type":"Polygon","coordinates":[[[23.053056,64.439167],[23.090278,64.461389],[23.14,64.483333],[23.181111,64.497222],[23.246944,64.515],[23.478333,64.574444],[23.523056,64.3825],[23.446111,64.333611],[23.053056,64.439167]]]}},{"type":"Feature","properties":{"id":"EFR122C","name":"LOHTAJA","type":"R","upper":"UNL","lower":"SFC","activity":"MILOPS","time":"NOTAM","fill":"#ff0000","fill-opacity":0.5,"stroke":"#ff0000","stroke-width":1.5},"geometry":{"type":"Polygon","coordinates":[[[22.311389,64.024167],[22.466667,63.933333],[22.553333,63.937222],[22.5325,63.923611],[21.879167,63.485],[21.589722,63.563333],[21.4325,63.605556],[21.5,63.616667],[21.566667,63.669167],[21.66,63.672222],[21.884722,63.701111],[22.12,63.8475],[22.2025,63.941389],[22.212222,63.951111],[22.255,63.985833],[22.287778,64.009444],[22.311389,64.024167]]]}},{"type":"Feature","properties":{"id":"EFR122D","name":"LOHTAJA","type":"R","upper":"UNL","lower":"SFC","activity":"MILOPS","time":"NOTAM","fill":"#ff0000","fill-opacity":0.5,"stroke":"#ff0000","stroke-width":1.5},"geometry":{"type":"Polygon","coordinates":[[[22.846389,63.950278],[22.623056,63.931389],[22.449722,63.520833],[22.123611,63.424167],[21.879167,63.485],[22.553333,63.937222],[22.846389,63.950278]]]}},{"type":"Feature","properties":{"id":"EFR122E","name":"LOHTAJA","type":"R","upper":"UNL","lower":"SFC","activity":"MILOPS","time":"NOTAM","fill":"#ff0000","fill-opacity":0.5,"stroke":"#ff0000","stroke-width":1.5},"geometry":{"type":"Polygon","coordinates":[[[24.149722,65.341667],[24.414722,65.304722],[24.192222,65.111944],[24.220278,64.907778],[24.523056,64.666944],[23.545833,64.154444],[23.566667,64.193333],[23.523056,64.3825],[23.478333,64.574444],[23.835833,64.665556],[24.083889,65.080278],[24.154444,65.2925],[24.149722,65.341667]]]}},{"type":"Feature","properties":{"id":"EFR123","name":"HAAPAJÄRVI","type":"R","upper":"1900 FT MSL","lower":"SFC","activity":"MILOPS","time":"H24","fill":"#ff0000","fill-opacity":0.5,"stroke":"#ff0000","stroke-width":1.5},"geometry":{"type":"Polygon","coordinates":[[[25.605833,63.7275],[25.65,63.620278],[25.401111,63.632778],[25.339722,63.656944],[25.605833,63.7275]]]}},{"type":"Feature","properties":{"id":"EFR124","name":"HARTOLA","type":"R","upper":"1900 FT MSL","lower":"SFC","activity":"MILOPS","time":"H24","fill":"#ff0000","fill-opacity":0.5,"stroke":"#ff0000","stroke-width":1.5},"geometry":{"type":"Polygon","coordinates":[[[26.291111,61.620833],[26.317222,61.575278],[26.175556,61.580556],[26.183889,61.601389],[26.291111,61.620833]]]}},{"type":"Feature","properties":{"id":"EFR125","name":"KOIVUJÄRVI","type":"R","upper":"1900 FT MSL","lower":"SFC","activity":"MILOPS","time":"H24","fill":"#ff0000","fill-opacity":0.5,"stroke":"#ff0000","stroke-width":1.5},"geometry":{"type":"Polygon","coordinates":[[[26.421944,63.4725],[26.499722,63.4075],[26.331944,63.388611],[26.319722,63.480278],[26.421944,63.4725]]]}},{"type":"Feature","properties":{"id":"EFR126","name":"PARKANO","type":"R","upper":"1900 FT MSL","lower":"SFC","activity":"MILOPS","time":"H24","fill":"#ff0000","fill-opacity":0.5,"stroke":"#ff0000","stroke-width":1.5},"geometry":{"type":"Polygon","coordinates":[[[23.2025,62.071111],[23.213333,62.032778],[23.091111,62.031944],[23.073333,62.086111],[23.2025,62.071111]]]}},{"type":"Feature","properties":{"id":"EFR128","name":"TAMMELA","type":"R","upper":"1600 FT MSL","lower":"SFC","activity":"MILOPS","time":"H24","fill":"#ff0000","fill-opacity":0.5,"stroke":"#ff0000","stroke-width":1.5},"geometry":{"type":"Polygon","coordinates":[[[23.786389,60.694444],[23.864722,60.648889],[23.820278,60.64],[23.744444,60.675],[23.786389,60.694444]]]}},{"type":"Feature","properties":{"id":"EFR129","name":"TERVOLA","type":"R","upper":"1900 FT MSL","lower":"SFC","activity":"MILOPS","time":"H24","fill":"#ff0000","fill-opacity":0.5,"stroke":"#ff0000","stroke-width":1.5},"geometry":{"type":"Polygon","coordinates":[[[25.157778,66.126667],[25.2725,66.071667],[25.165556,66.064167],[25.121389,66.121389],[25.157778,66.126667]]]}},{"type":"Feature","properties":{"id":"EFR130","name":"TOIVAKKA","type":"R","upper":"1900 FT MSL","lower":"SFC","activity":"MILOPS","time":"H24","fill":"#ff0000","fill-opacity":0.5,"stroke":"#ff0000","stroke-width":1.5},"geometry":{"type":"Polygon","coordinates":[[[26.175278,62.144444],[26.238333,62.106111],[26.2175,62.076667],[26.133889,62.092778],[26.175278,62.144444]]]}},{"type":"Feature","properties":{"id":"EFR131","name":"ÄHTÄRI","type":"R","upper":"1900 FT MSL","lower":"SFC","activity":"MILOPS","time":"H24","fill":"#ff0000","fill-opacity":0.5,"stroke":"#ff0000","stroke-width":1.5},"geometry":{"type":"Polygon","coordinates":[[[24.558056,62.671667],[24.580278,62.591389],[24.396389,62.588889],[24.413889,62.67],[24.558056,62.671667]]]}},{"type":"Feature","properties":{"id":"EFR132","name":"DRAGSVIK","type":"R","upper":"2000 FT MSL","lower":"SFC","activity":"MILOPS","time":"H24","fill":"#ff0000","fill-opacity":0.5,"stroke":"#ff0000","stroke-width":1.5},"geometry":{"type":"Polygon","coordinates":[[[23.495,60.008611],[23.515556,60.009722],[23.523333,60.003611],[23.505278,59.995],[23.516944,59.981389],[23.509167,59.978611],[23.492222,59.981667],[23.4825,59.978333],[23.476389,59.980278],[23.478056,59.981389],[23.476944,59.983611],[23.4775,59.985278],[23.500833,59.993889],[23.494444,59.993056],[23.495,60.008611]]]}},{"type":"Feature","properties":{"id":"EFR133","name":"SYNDALEN","type":"R","upper":"2000 FT MSL","lower":"SFC","activity":"MILOPS","time":"H24","fill":"#ff0000","fill-opacity":0.5,"stroke":"#ff0000","stroke-width":1.5},"geometry":{"type":"Polygon","coordinates":[[[23.214167,59.872778],[23.229722,59.875],[23.241667,59.874444],[23.243333,59.879167],[23.261667,59.873611],[23.252222,59.864444],[23.238611,59.861111],[23.224167,59.861667],[23.214167,59.872778]]]}},{"type":"Feature","properties":{"id":"EFR134","name":"LAKIALA","type":"R","upper":"2000 FT MSL","lower":"SFC","activity":"MILOPS, UAV","time":"NOTAM","fill":"#ff0000","fill-opacity":0.5,"stroke":"#ff0000","stroke-width":1.5},"geometry":{"type":"Polygon","coordinates":[[[23.499722,61.610833],[23.509444,61.606944],[23.508333,61.601944],[23.509444,61.599722],[23.508889,61.597778],[23.506667,61.595556],[23.500833,61.594444],[23.496111,61.594167],[23.491389,61.595],[23.490833,61.596667],[23.483889,61.598889],[23.483056,61.600556],[23.483889,61.601389],[23.483333,61.602222],[23.488333,61.605556],[23.492778,61.606389],[23.493889,61.609722],[23.499722,61.610833]]]}},{"type":"Feature","properties":{"id":"EFR135A","name":"PAHKAJÄRVI","type":"R","upper":"FL 250","lower":"SFC","activity":"MILOPS","time":"NOTAM","fill":"#ff0000","fill-opacity":0.5,"stroke":"#ff0000","stroke-width":1.5},"geometry":{"type":"Polygon","coordinates":[[[26.875833,61.23],[27.071389,61.23],[27.096667,61.206389],[27.115278,61.1375],[27.036667,61.127778],[26.876111,61.137778],[26.875833,61.23]]]}},{"type":"Feature","properties":{"id":"EFR135B","name":"PAHKAJÄRVI","type":"R","upper":"FL 250","lower":"SFC","activity":"MILOPS","time":"NOTAM","fill":"#ff0000","fill-opacity":0.5,"stroke":"#ff0000","stroke-width":1.5},"geometry":{"type":"Polygon","coordinates":[[[26.876111,61.137778],[27.036667,61.127778],[27.008611,61.118611],[26.978333,61.0975],[26.923333,61.084444],[26.870278,61.109444],[26.876111,61.137778]]]}},{"type":"Feature","properties":{"id":"EFR100","name":"inner boundary only (border leg not in source)","type":"R","upper":"FL 280","lower":"SFC","activity":"OTHER, UAV","time":"H24","stroke":"#ff0000","stroke-width":2.5},"geometry":{"type":"LineString","coordinates":[[27.293056,60.200278],[26.763611,60.200278],[26.763611,60.233611],[27.196944,60.233611],[27.380278,60.266944],[27.763611,60.583611],[27.873889,60.645278],[27.979722,60.703333],[28.096111,60.7625],[28.136389,60.801667],[28.186111,60.807778],[28.290278,60.875556],[28.399444,60.928056],[28.501111,60.983333],[28.628056,60.980833],[28.664722,61.058333],[28.756667,61.108889],[28.768611,61.1375],[28.908889,61.178889],[29.040833,61.229444],[29.193611,61.283889],[29.275278,61.361111],[29.359722,61.415833],[29.444722,61.469167],[29.443889,61.514167],[29.566944,61.523056],[29.690278,61.596667],[29.775278,61.6725],[29.883056,61.728611],[29.993056,61.781667],[30.017222,61.828333],[30.135556,61.889444],[30.234444,61.957222],[30.345,62.023333],[30.449167,62.088333],[30.553611,62.155833],[30.613611,62.230278],[30.693889,62.238889],[30.794444,62.294444],[30.899167,62.351111],[31.002222,62.408333],[31.106389,62.466389],[31.131944,62.509167],[31.182222,62.523889],[31.247778,62.599722],[31.307778,62.669722],[31.344167,62.731111],[31.378889,62.788611],[31.451944,62.849722],[31.518333,62.906944],[31.457778,62.974722],[31.395833,62.99],[31.382778,63.018056],[31.314722,63.051944],[31.211667,63.094444],[31.195833,63.149444],[31.179722,63.204167],[31.09,63.240556],[30.999722,63.276667],[30.940278,63.283889],[30.880278,63.332778],[30.818333,63.344167],[30.751667,63.382778],[30.594722,63.412778],[30.440278,63.445],[30.338333,63.526944],[30.219167,63.563611],[30.116944,63.631111],[29.993889,63.699444],[29.908889,63.748056],[29.916111,63.774444],[30.071111,63.8125],[30.211944,63.844167],[30.271389,63.930278],[30.396389,63.998056],[30.469444,64.057778],[30.499167,64.119167],[30.461944,64.141667],[30.398611,64.205278],[30.436667,64.234167],[30.314167,64.256667],[30.300278,64.2875],[30.185833,64.325278],[30.078611,64.338333],[29.983611,64.3925],[29.990556,64.455278],[29.923333,64.530556],[29.939444,64.6075],[30.0675,64.646389],[29.993056,64.704167],[29.975278,64.745833],[30.004444,64.764444],[29.858056,64.764167],[29.705278,64.764167],[29.620556,64.812222],[29.631111,64.832778],[29.588611,64.852778],[29.546667,64.923611],[29.555,64.957778],[29.535278,64.992778],[29.570833,65.076944],[29.714167,65.118333],[29.786667,65.118611],[29.75,65.145833],[29.818056,65.193333],[29.690833,65.203889],[29.587778,65.209444],[29.534444,65.256667],[29.550278,65.289444],[29.598333,65.3075],[29.676944,65.353333],[29.662778,65.378056],[29.665833,65.438889],[29.673056,65.496389],[29.78,65.56],[29.699722,65.594444],[29.646389,65.649167],[29.828611,65.688333],[30.016944,65.725833],[30.063889,65.715278],[30.036111,65.801667],[30.003889,65.889444],[29.938889,65.976111],[29.906111,66.040278],[29.861111,66.116944],[29.750556,66.190278],[29.633056,66.265],[29.585833,66.330556],[29.531111,66.398333],[29.473333,66.466667],[29.410833,66.532222],[29.309167,66.6075],[29.212778,66.683333],[29.105833,66.756389],[29.039722,66.778889],[29.040556,66.805],[28.994167,66.845278],[28.98,66.882778],[28.96,66.934444],[28.995556,66.997778],[29.083611,67.054444],[29.172778,67.110833],[29.261667,67.166667],[29.350556,67.223611],[29.435833,67.280556],[29.463889,67.324722],[29.556389,67.361389],[29.646389,67.403611],[29.748056,67.470833],[29.865278,67.534722],[29.902222,67.599722],[29.939167,67.664722],[29.769444,67.726389],[29.600278,67.787222],[29.518333,67.854444],[29.436944,67.921111],[29.355,67.987778],[29.272778,68.054444],[29.100278,68.085556],[28.927222,68.116389],[28.756111,68.146667],[28.583333,68.1775],[28.538333,68.251389],[28.493056,68.324167],[28.446389,68.3975],[28.401389,68.470278],[28.356389,68.543056],[28.448611,68.609444],[28.542222,68.675556],[28.636389,68.741667],[28.673889,68.796667],[28.711667,68.851667],[28.648333,68.859444],[28.426389,68.860556],[28.325,68.919722],[28.508056,68.967778],[28.689167,69.018889]]}},{"type":"Feature","properties":{"id":"EFD101","name":"ISOSAARI","type":"D","upper":"FL 390","lower":"SFC","fill":"#ff8000","fill-opacity":0.5,"stroke":"#ff8000","stroke-width":1.5},"geometry":{"type":"Polygon","coordinates":[[[25.281389,59.938889],[25.251667,59.904167],[24.996944,59.890833],[24.996944,59.9275],[25.169444,59.943333],[25.281389,59.938889]]]}},{"type":"Feature","properties":{"id":"EFD102","name":"KUIVASAARI","type":"D","upper":"FL 390","lower":"SFC","fill":"#ff8000","fill-opacity":0.5,"stroke":"#ff8000","stroke-width":1.5},"geometry":{"type":"Polygon","coordinates":[[[24.82,59.898889],[24.93,59.921389],[24.996944,59.9275],[24.996944,59.890833],[24.85,59.883056],[24.805,59.873889],[24.82,59.898889]]]}},{"type":"Feature","properties":{"id":"EFD103","name":"KATAJALUOTO","type":"D","upper":"UNL","lower":"SFC","fill":"#ff8000","fill-opacity":0.5,"stroke":"#ff8000","stroke-width":1.5},"geometry":{"type":"Polygon","coordinates":[[[24.746667,59.882222],[24.785278,59.891944],[24.819722,59.898889],[24.805,59.873889],[24.756944,59.863611],[24.746667,59.882222]]]}},{"type":"Feature","properties":{"id":"EFD104","name":"KATAJALUOTO","type":"D","upper":"UNL","lower":"SFC","fill":"#ff8000","fill-opacity":0.5,"stroke":"#ff8000","stroke-width":1.5},"geometry":{"type":"Polygon","coordinates":[[[24.5975,59.844722],[24.746667,59.882222],[24.756944,59.863611],[24.604722,59.831667],[24.5975,59.844722]]]}},{"type":"Feature","properties":{"id":"EFD105","name":"KATAJALUOTO","type":"D","upper":"UNL","lower":"SFC","fill":"#ff8000","fill-opacity":0.5,"stroke":"#ff8000","stroke-width":1.5},"geometry":{"type":"Polygon","coordinates":[[[24.302778,59.793889],[24.332222,59.796667],[24.488333,59.816944],[24.5975,59.844722],[24.604722,59.831667],[24.302778,59.766944],[24.302778,59.793889]]]}},{"type":"Feature","properties":{"id":"EFD106","name":"KATAJALUOTO","type":"D","upper":"UNL","lower":"SFC","fill":"#ff8000","fill-opacity":0.5,"stroke":"#ff8000","stroke-width":1.5},"geometry":{"type":"Polygon","coordinates":[[[24.154722,59.776111],[24.206111,59.783611],[24.302778,59.793889],[24.302778,59.767222],[24.208056,59.746944],[24.154722,59.776111]]]}},{"type":"Feature","properties":{"id":"EFD107","name":"KATAJALUOTO","type":"D","upper":"UNL","lower":"SFC","fill":"#ff8000","fill-opacity":0.5,"stroke":"#ff8000","stroke-width":1.5},"geometry":{"type":"Polygon","coordinates":[[[23.994167,59.752778],[24.154722,59.776111],[24.208056,59.746944],[24.045556,59.711667],[23.984444,59.749167],[23.994167,59.752778]]]}},{"type":"Feature","properties":{"id":"EFD108","name":"RUSSARÖ","type":"D","upper":"FL 250","lower":"SFC","fill":"#ff8000","fill-opacity":0.5,"stroke":"#ff8000","stroke-width":1.5},"geometry":{"type":"Polygon","coordinates":[[[22.703056,59.616389],[22.8575,59.635556],[23.071667,59.645],[23.055278,59.608333],[22.746667,59.608333],[22.703056,59.616389]]]}},{"type":"Feature","properties":{"id":"EFD109","name":"ÖRÖ","type":"D","upper":"UNL","lower":"SFC","fill":"#ff8000","fill-opacity":0.5,"stroke":"#ff8000","stroke-width":1.5},"geometry":{"type":"Polygon","coordinates":[[[21.988611,59.496389],[22.396389,59.513056],[22.634444,59.608056],[22.703056,59.616389],[22.746667,59.608333],[22.746944,59.420556],[21.946667,59.231944],[21.946667,59.433333],[21.988611,59.496389]]]}},{"type":"Feature","properties":{"id":"EFD110","name":"ISOKARI","type":"D","upper":"UNL","lower":"SFC","fill":"#ff8000","fill-opacity":0.5,"stroke":"#ff8000","stroke-width":1.5},"geometry":{"type":"Polygon","coordinates":[[[20.781667,61.166944],[20.771389,61.126944],[20.4375,60.901944],[20.33,60.856667],[20.329722,61.166667],[20.781667,61.166944]]]}},{"type":"Feature","properties":{"id":"EFD111A","name":"LOHTAJA","type":"D","upper":"UNL","lower":"SFC","fill":"#ff8000","fill-opacity":0.5,"stroke":"#ff8000","stroke-width":1.5},"geometry":{"type":"Polygon","coordinates":[[[23.053056,64.439167],[23.0225,64.413889],[23.006944,64.396667],[22.993889,64.376111],[22.9875,64.360556],[22.976389,64.303611],[22.961111,64.22],[22.877222,64.201111],[22.778889,64.178889],[22.566111,64.129722],[22.545278,64.123889],[22.481111,64.1025],[22.390833,64.069167],[22.342778,64.044167],[22.311389,64.024167],[22.149722,64.118056],[22.706111,64.530833],[23.053056,64.439167]]]}},{"type":"Feature","properties":{"id":"EFD111B","name":"LOHTAJA","type":"D","upper":"UNL","lower":"SFC","fill":"#ff8000","fill-opacity":0.5,"stroke":"#ff8000","stroke-width":1.5},"geometry":{"type":"Polygon","coordinates":[[[23.478333,64.574444],[23.246944,64.515],[23.181111,64.497222],[23.14,64.483333],[23.090278,64.461389],[23.053056,64.439167],[22.706111,64.530833],[23.375833,65.003889],[23.478333,64.574444]]]}},{"type":"Feature","properties":{"id":"EFD111C","name":"LOHTAJA","type":"D","upper":"UNL","lower":"SFC","fill":"#ff8000","fill-opacity":0.5,"stroke":"#ff8000","stroke-width":1.5},"geometry":{"type":"Polygon","coordinates":[[[22.149722,64.118056],[22.311389,64.024167],[22.287778,64.009444],[22.255,63.985833],[22.212222,63.951111],[22.2025,63.941389],[22.12,63.8475],[21.884722,63.701111],[21.66,63.672222],[21.566667,63.669167],[21.961667,63.974722],[22.149722,64.118056]]]}},{"type":"Feature","properties":{"id":"EFD111D","name":"LOHTAJA","type":"D","upper":"UNL","lower":"SFC","fill":"#ff8000","fill-opacity":0.5,"stroke":"#ff8000","stroke-width":1.5},"geometry":{"type":"Polygon","coordinates":[[[23.909722,65.374444],[24.149722,65.341667],[24.154444,65.2925],[24.083889,65.080278],[23.835833,64.665556],[23.478333,64.574444],[23.375833,65.003889],[23.375556,65.004722],[23.909722,65.374444]]]}},{"type":"Feature","properties":{"id":"EFD113","name":"HUOVINRINNE","type":"D","upper":"3500 FT AMSL","lower":"SFC","fill":"#ff8000","fill-opacity":0.5,"stroke":"#ff8000","stroke-width":1.5},"geometry":{"type":"Polygon","coordinates":[[[22.477222,61.061111],[22.438333,61.031389],[22.458056,61.011944],[22.315833,61.031389],[22.316389,61.105833],[22.477222,61.061111]]]}},{"type":"Feature","properties":{"id":"EFD114A","name":"KASSUNKURU","type":"D","upper":"3500 FT MSL","lower":"SFC","fill":"#ff8000","fill-opacity":0.5,"stroke":"#ff8000","stroke-width":1.5},"geometry":{"type":"Polygon","coordinates":[[[27.638333,64.195833],[27.721389,64.181111],[27.761389,64.1775],[27.760556,64.150556],[27.698056,64.114722],[27.676944,64.088056],[27.656389,64.097222],[27.534167,64.133333],[27.534722,64.169444],[27.638333,64.195833]]]}},{"type":"Feature","properties":{"id":"EFD114B","name":"KASSUNKURU","type":"D","upper":"3500 FT MSL","lower":"SFC","fill":"#ff8000","fill-opacity":0.5,"stroke":"#ff8000","stroke-width":1.5},"geometry":{"type":"Polygon","coordinates":[[[27.761389,64.1775],[27.843056,64.158889],[27.923889,64.113611],[27.902778,64.095833],[27.881389,64.068889],[27.84,64.060278],[27.7375,64.060833],[27.676944,64.088056],[27.698056,64.114722],[27.760556,64.150556],[27.761389,64.1775]]]}},{"type":"Feature","properties":{"id":"EFD114C","name":"KASSUNKURU","type":"D","upper":"3500 FT MSL","lower":"SFC","fill":"#ff8000","fill-opacity":0.5,"stroke":"#ff8000","stroke-width":1.5},"geometry":{"type":"Polygon","coordinates":[[[27.923889,64.113611],[28.025556,64.086111],[28.003333,64.041389],[27.961667,64.023611],[27.798056,64.024722],[27.7375,64.060833],[27.84,64.060278],[27.881389,64.068889],[27.902778,64.095833],[27.923889,64.113611]]]}},{"type":"Feature","properties":{"id":"EFD114D","name":"KASSUNKURU","type":"D","upper":"3500 FT MSL","lower":"SFC","fill":"#ff8000","fill-opacity":0.5,"stroke":"#ff8000","stroke-width":1.5},"geometry":{"type":"Polygon","coordinates":[[[27.638333,64.195833],[27.784167,64.190278],[28.044167,64.138889],[28.025556,64.086111],[27.923889,64.113611],[27.843056,64.158889],[27.761389,64.1775],[27.721389,64.181111],[27.638333,64.195833]]]}},{"type":"Feature","properties":{"id":"EFD114E","name":"KASSUNKURU","type":"D","upper":"3500 FT MSL","lower":"SFC","fill":"#ff8000","fill-opacity":0.5,"stroke":"#ff8000","stroke-width":1.5},"geometry":{"type":"Polygon","coordinates":[[[27.534167,64.133333],[27.656389,64.097222],[27.676944,64.088056],[27.7375,64.060833],[27.798056,64.024722],[27.553611,64.061667],[27.534167,64.133333]]]}},{"type":"Feature","properties":{"id":"EFD115","name":"KYLÄJÄRVI","type":"D","upper":"FL 170","lower":"SFC","fill":"#ff8000","fill-opacity":0.5,"stroke":"#ff8000","stroke-width":1.5},"geometry":{"type":"Polygon","coordinates":[[[26.3125,67.402222],[26.295833,67.325556],[26.479167,67.325556],[26.443333,67.273611],[26.257778,67.273056],[26.254444,67.380556],[26.3125,67.402222]]]}},{"type":"Feature","properties":{"id":"EFD117A","name":"PAROLA","type":"D","upper":"3500 FT AMSL","lower":"SFC","fill":"#ff8000","fill-opacity":0.5,"stroke":"#ff8000","stroke-width":1.5},"geometry":{"type":"Polygon","coordinates":[[[24.308889,61.131667],[24.401111,61.056389],[24.364444,61.051111],[24.198333,61.008056],[24.115833,61.084167],[24.308889,61.131667]]]}},{"type":"Feature","properties":{"id":"EFD117B","name":"PAROLA","type":"D","upper":"3500 FT AMSL","lower":"SFC","fill":"#ff8000","fill-opacity":0.5,"stroke":"#ff8000","stroke-width":1.5},"geometry":{"type":"Polygon","coordinates":[[[24.308889,61.131667],[24.543056,61.135],[24.636944,61.079722],[24.437222,61.061389],[24.401111,61.056389],[24.308889,61.131667]]]}},{"type":"Feature","properties":{"id":"EFD117C","name":"PAROLA","type":"D","upper":"3500 FT AMSL","lower":"SFC","fill":"#ff8000","fill-opacity":0.5,"stroke":"#ff8000","stroke-width":1.5},"geometry":{"type":"Polygon","coordinates":[[[24.364444,61.051111],[24.407222,61.019444],[24.248889,60.961111],[24.198333,61.008056],[24.364444,61.051111]]]}},{"type":"Feature","properties":{"id":"EFD117D","name":"PAROLA","type":"D","upper":"3500 FT AMSL","lower":"SFC","fill":"#ff8000","fill-opacity":0.5,"stroke":"#ff8000","stroke-width":1.5},"geometry":{"type":"Polygon","coordinates":[[[24.401111,61.056389],[24.437222,61.061389],[24.488333,61.022222],[24.407222,61.019444],[24.364444,61.051111],[24.401111,61.056389]]]}},{"type":"Feature","properties":{"id":"EFD117E","name":"PAROLA","type":"D","upper":"3500 FT AMSL","lower":"SFC","fill":"#ff8000","fill-opacity":0.5,"stroke":"#ff8000","stroke-width":1.5},"geometry":{"type":"Polygon","coordinates":[[[24.636944,61.079722],[24.711667,61.040278],[24.586389,61.021944],[24.524167,61.025],[24.488333,61.022222],[24.437222,61.061389],[24.636944,61.079722]]]}},{"type":"Feature","properties":{"id":"EFD118","name":"ISOLÄHDE","type":"D","upper":"FL 195","lower":"SFC","fill":"#ff8000","fill-opacity":0.5,"stroke":"#ff8000","stroke-width":1.5},"geometry":{"type":"Polygon","coordinates":[[[26.346667,60.963611],[26.125833,60.724444],[26.050833,60.886944],[26.090278,60.933889],[26.346667,60.963611]]]}},{"type":"Feature","properties":{"id":"EFD119A","name":"HYVINKÄÄ","type":"D","upper":"FL 195","lower":"SFC","fill":"#ff8000","fill-opacity":0.5,"stroke":"#ff8000","stroke-width":1.5},"geometry":{"type":"Polygon","coordinates":[[[24.882222,60.701667],[25.064722,60.699444],[24.996667,60.650278],[24.804167,60.617222],[24.719444,60.684722],[24.882222,60.701667]]]}},{"type":"Feature","properties":{"id":"EFD119B","name":"HYVINKÄÄ","type":"D","upper":"FL 195","lower":"SFC","fill":"#ff8000","fill-opacity":0.5,"stroke":"#ff8000","stroke-width":1.5},"geometry":{"type":"Polygon","coordinates":[[[24.8,60.746389],[24.908889,60.752778],[25.020278,60.751944],[25.126944,60.744444],[25.064722,60.699444],[24.882222,60.701667],[24.719444,60.684722],[24.665,60.728333],[24.8,60.746389]]]}},{"type":"Feature","properties":{"id":"EFD119C","name":"HYVINKÄÄ","type":"D","upper":"FL 195","lower":"SFC","fill":"#ff8000","fill-opacity":0.5,"stroke":"#ff8000","stroke-width":1.5},"geometry":{"type":"Polygon","coordinates":[[[24.782222,60.820278],[25.128333,60.825833],[25.126944,60.744444],[25.020278,60.751944],[24.908889,60.752778],[24.8,60.746389],[24.665,60.728333],[24.606389,60.774444],[24.665,60.789722],[24.782222,60.820278]]]}},{"type":"Feature","properties":{"id":"EFD119D","name":"HYVINKÄÄ","type":"D","upper":"FL 195","lower":"SFC","fill":"#ff8000","fill-opacity":0.5,"stroke":"#ff8000","stroke-width":1.5},"geometry":{"type":"Polygon","coordinates":[[[25.44,60.954444],[25.751667,60.833889],[25.485833,60.830833],[25.128333,60.825833],[24.782222,60.820278],[25.086667,60.949722],[25.44,60.954444]]]}},{"type":"Feature","properties":{"id":"EFD120A","name":"MENKIJÄRVI","type":"D","upper":"FL 195","lower":"SFC","fill":"#ff8000","fill-opacity":0.5,"stroke":"#ff8000","stroke-width":1.5},"geometry":{"type":"Polygon","coordinates":[[[23.515833,63.073333],[23.942222,63.018889],[24.039444,62.965278],[23.665833,62.628056],[23.441389,62.736944],[23.421111,63.04],[23.515833,63.073333]]]}},{"type":"Feature","properties":{"id":"EFD120B","name":"MENKIJÄRVI","type":"D","upper":"FL 195","lower":"SFC","fill":"#ff8000","fill-opacity":0.5,"stroke":"#ff8000","stroke-width":1.5},"geometry":{"type":"Polygon","coordinates":[[[24.039444,62.965278],[24.211944,62.869167],[24.200833,62.604167],[23.857222,62.619722],[23.665833,62.628056],[24.039444,62.965278]]]}},{"type":"Feature","properties":{"id":"EFD120C","name":"MENKIJÄRVI","type":"D","upper":"FL 195","lower":"SFC","fill":"#ff8000","fill-opacity":0.5,"stroke":"#ff8000","stroke-width":1.5},"geometry":{"type":"Polygon","coordinates":[[[23.857222,62.619722],[24.200833,62.604167],[23.791111,62.295556],[23.6825,62.3725],[23.666944,62.383333],[23.857222,62.619722]]]}},{"type":"Feature","properties":{"id":"EFD120D","name":"MENKIJÄRVI","type":"D","upper":"FL 195","lower":"SFC","fill":"#ff8000","fill-opacity":0.5,"stroke":"#ff8000","stroke-width":1.5},"geometry":{"type":"Polygon","coordinates":[[[23.665833,62.628056],[23.857222,62.619722],[23.666944,62.383333],[23.551111,62.464722],[23.665833,62.628056]]]}},{"type":"Feature","properties":{"id":"EFD121A","name":"HAAPAVESI","type":"D","upper":"FL 195","lower":"SFC","fill":"#ff8000","fill-opacity":0.5,"stroke":"#ff8000","stroke-width":1.5},"geometry":{"type":"Polygon","coordinates":[[[25.283333,64.166667],[25.271111,63.806389],[25.672222,63.8875],[25.673889,64.166667],[25.283333,64.166667]]]}},{"type":"Feature","properties":{"id":"EFD121B","name":"HAAPAVESI","type":"D","upper":"FL 195","lower":"SFC","fill":"#ff8000","fill-opacity":0.5,"stroke":"#ff8000","stroke-width":1.5},"geometry":{"type":"Polygon","coordinates":[[[25.673889,64.166667],[25.672222,63.8875],[26.133333,63.976944],[26.133333,64.166667],[25.673889,64.166667]]]}},{"type":"Feature","properties":{"id":"EFD122","name":"AHMOSUO","type":"D","upper":"FL 195","lower":"SFC","fill":"#ff8000","fill-opacity":0.5,"stroke":"#ff8000","stroke-width":1.5},"geometry":{"type":"Polygon","coordinates":[[[25.714167,64.940278],[25.834722,64.898889],[25.768333,64.864167],[25.6475,64.905556],[25.714167,64.940278]]]}},{"type":"Feature","properties":{"id":"EFD123A","name":"TEISKO","type":"D","upper":"FL 195","lower":"SFC","fill":"#ff8000","fill-opacity":0.5,"stroke":"#ff8000","stroke-width":1.5},"geometry":{"type":"Polygon","coordinates":[[[23.698611,61.990556],[24.049444,61.948611],[24.131944,61.718611],[23.752222,61.723333],[23.620833,61.693889],[23.359444,61.928889],[23.418889,61.98],[23.698611,61.990556]]]}},{"type":"Feature","properties":{"id":"EFD123B","name":"TEISKO","type":"D","upper":"FL 195","lower":"SFC","fill":"#ff8000","fill-opacity":0.5,"stroke":"#ff8000","stroke-width":1.5},"geometry":{"type":"Polygon","coordinates":[[[24.049444,61.948611],[24.374167,61.854722],[24.395833,61.718056],[24.262222,61.685833],[24.131944,61.718611],[24.049444,61.948611]]]}},{"type":"Feature","properties":{"id":"EFD123C","name":"TEISKO","type":"D","upper":"FL 195","lower":"SFC","fill":"#ff8000","fill-opacity":0.5,"stroke":"#ff8000","stroke-width":1.5},"geometry":{"type":"Polygon","coordinates":[[[24.569722,61.724167],[24.8025,61.606111],[24.597778,61.6],[24.262222,61.685833],[24.395833,61.718056],[24.569722,61.724167]]]}},{"type":"Feature","properties":{"id":"EFD124A","name":"KAUHAVA","type":"D","upper":"FL 195","lower":"SFC","fill":"#ff8000","fill-opacity":0.5,"stroke":"#ff8000","stroke-width":1.5},"geometry":{"type":"Polygon","coordinates":[[[22.94,63.173056],[23.158333,63.174722],[23.161944,63.074444],[22.9425,63.073056],[22.94,63.173056]]]}},{"type":"Feature","properties":{"id":"EFD124B","name":"KAUHAVA","type":"D","upper":"FL 195","lower":"SFC","fill":"#ff8000","fill-opacity":0.5,"stroke":"#ff8000","stroke-width":1.5},"geometry":{"type":"Polygon","coordinates":[[[22.777778,63.3],[23.145833,63.269444],[23.158333,63.174722],[22.94,63.173056],[22.777778,63.3]]]}},{"type":"Feature","properties":{"id":"EFD124C","name":"KAUHAVA","type":"D","upper":"FL 195","lower":"SFC","fill":"#ff8000","fill-opacity":0.5,"stroke":"#ff8000","stroke-width":1.5},"geometry":{"type":"Polygon","coordinates":[[[23.596944,63.348889],[23.942222,63.018889],[23.515833,63.073333],[23.161944,63.074444],[23.158333,63.174722],[23.145833,63.269444],[23.596944,63.348889]]]}},{"type":"Feature","properties":{"id":"EFD124D","name":"KAUHAVA","type":"D","upper":"FL 195","lower":"SFC","fill":"#ff8000","fill-opacity":0.5,"stroke":"#ff8000","stroke-width":1.5},"geometry":{"type":"Polygon","coordinates":[[[22.7325,63.072778],[22.9425,63.073056],[23.161944,63.074444],[23.515833,63.073333],[23.421111,63.04],[23.441389,62.736944],[22.7325,63.072778]]]}},{"type":"Feature","properties":{"id":"EFD124E","name":"KAUHAVA","type":"D","upper":"FL 195","lower":"SFC","fill":"#ff8000","fill-opacity":0.5,"stroke":"#ff8000","stroke-width":1.5},"geometry":{"type":"Polygon","coordinates":[[[22.618333,63.365556],[22.777778,63.3],[22.94,63.173056],[22.9425,63.073056],[22.7325,63.072778],[22.388056,63.030833],[22.294444,63.171389],[22.618333,63.365556]]]}},{"type":"Feature","properties":{"id":"EFD125","name":"IMMOLA","type":"D","upper":"FL 195","lower":"SFC","fill":"#ff8000","fill-opacity":0.5,"stroke":"#ff8000","stroke-width":1.5},"geometry":{"type":"Polygon","coordinates":[[[28.596111,61.667222],[28.851111,61.6675],[29.165556,61.558889],[29.113611,61.432222],[29.113611,61.253333],[29.040833,61.229444],[28.908889,61.178889],[28.787222,61.144167],[28.664722,61.058333],[28.688056,61.309722],[28.424722,61.3725],[28.359722,61.359444],[28.177222,61.448611],[28.596111,61.667222]]]}},{"type":"Feature","properties":{"id":"EFD126","name":"VESIVEHMAA","type":"D","upper":"FL 195","lower":"SFC","fill":"#ff8000","fill-opacity":0.5,"stroke":"#ff8000","stroke-width":1.5},"geometry":{"type":"Polygon","coordinates":[[[25.475,61.033333],[26.045833,61.033333],[26.108333,61.345833],[25.490278,61.345833],[25.475,61.033333]]]}},{"type":"Feature","properties":{"id":"EFD128A","name":"NUMMELA","type":"D","upper":"FL 195","lower":"SFC","fill":"#ff8000","fill-opacity":0.5,"stroke":"#ff8000","stroke-width":1.5},"geometry":{"type":"Polygon","coordinates":[[[24.291111,60.5],[24.294167,60.402222],[24.387222,60.370833],[24.385278,60.317778],[24.308611,60.2825],[24.161111,60.275278],[24.291111,60.5]]]}},{"type":"Feature","properties":{"id":"EFD128B","name":"NUMMELA","type":"D","upper":"FL 195","lower":"SFC","fill":"#ff8000","fill-opacity":0.5,"stroke":"#ff8000","stroke-width":1.5},"geometry":{"type":"Polygon","coordinates":[[[24.352222,60.654167],[24.424444,60.589722],[24.381111,60.569722],[24.291111,60.5],[24.161111,60.275278],[23.968333,60.265833],[24.043611,60.447778],[24.270556,60.6],[24.352222,60.654167]]]}},{"type":"Feature","properties":{"id":"EFD128C","name":"NUMMELA","type":"D","upper":"FL 195","lower":"SFC","fill":"#ff8000","fill-opacity":0.5,"stroke":"#ff8000","stroke-width":1.5},"geometry":{"type":"Polygon","coordinates":[[[24.606389,60.774444],[24.665,60.728333],[24.719444,60.684722],[24.525833,60.636389],[24.424444,60.589722],[24.352222,60.654167],[24.485556,60.7425],[24.606389,60.774444]]]}},{"type":"Feature","properties":{"id":"EFD128D","name":"NUMMELA","type":"D","upper":"FL 195","lower":"SFC","fill":"#ff8000","fill-opacity":0.5,"stroke":"#ff8000","stroke-width":1.5},"geometry":{"type":"Polygon","coordinates":[[[24.063333,60.601667],[24.270556,60.6],[24.043611,60.447778],[24.016944,60.383889],[23.968333,60.265833],[23.793889,60.256944],[23.848056,60.389444],[23.886111,60.482222],[24.063333,60.601667]]]}},{"type":"Feature","properties":{"id":"EFD128E","name":"NUMMELA","type":"D","upper":"FL 195","lower":"SFC","fill":"#ff8000","fill-opacity":0.5,"stroke":"#ff8000","stroke-width":1.5},"geometry":{"type":"Polygon","coordinates":[[[24.269167,60.280556],[23.915278,60.136944],[23.968333,60.265833],[24.161111,60.275278],[24.269167,60.280556]]]}},{"type":"Feature","properties":{"id":"EFD129A","name":"PIIKAJÄRVI","type":"D","upper":"FL 195","lower":"SFC","fill":"#ff8000","fill-opacity":0.5,"stroke":"#ff8000","stroke-width":1.5},"geometry":{"type":"Polygon","coordinates":[[[22.245278,61.301111],[22.47,61.287778],[22.450556,61.1525],[22.153056,61.103611],[22.0875,61.260278],[22.245278,61.301111]]]}},{"type":"Feature","properties":{"id":"EFD129B","name":"PIIKAJÄRVI","type":"D","upper":"FL 195","lower":"SFC","fill":"#ff8000","fill-opacity":0.5,"stroke":"#ff8000","stroke-width":1.5},"geometry":{"type":"Polygon","coordinates":[[[22.598333,61.176667],[22.531667,61.116389],[22.477222,61.061111],[22.438333,61.031389],[22.458056,61.011944],[22.315833,61.031389],[22.153056,61.103611],[22.450556,61.1525],[22.598333,61.176667]]]}},{"type":"Feature","properties":{"id":"EFD129C","name":"PIIKAJÄRVI","type":"D","upper":"FL 195","lower":"SFC","fill":"#ff8000","fill-opacity":0.5,"stroke":"#ff8000","stroke-width":1.5},"geometry":{"type":"Polygon","coordinates":[[[22.47,61.287778],[22.606944,61.279722],[22.598333,61.176667],[22.450556,61.1525],[22.47,61.287778]]]}},{"type":"Feature","properties":{"id":"EFD131A","name":"PYHTÄÄ","type":"D","upper":"FL 195","lower":"SFC","fill":"#ff8000","fill-opacity":0.5,"stroke":"#ff8000","stroke-width":1.5},"geometry":{"type":"Polygon","coordinates":[[[26.333056,60.631389],[26.430556,60.587222],[26.626667,60.608333],[26.743889,60.433333],[26.446944,60.383611],[26.308333,60.509722],[26.333056,60.631389]]]}},{"type":"Feature","properties":{"id":"EFD131B","name":"PYHTÄÄ","type":"D","upper":"FL 195","lower":"SFC","fill":"#ff8000","fill-opacity":0.5,"stroke":"#ff8000","stroke-width":1.5},"geometry":{"type":"Polygon","coordinates":[[[26.59,60.663056],[26.626667,60.608333],[26.430556,60.587222],[26.333056,60.631389],[26.59,60.663056]]]}},{"type":"Feature","properties":{"id":"EFD132","name":"KIIKALA","type":"D","upper":"FL 195","lower":"SFC","fill":"#ff8000","fill-opacity":0.5,"stroke":"#ff8000","stroke-width":1.5},"geometry":{"type":"Polygon","coordinates":[[[23.833333,60.576667],[23.44,60.576667],[23.458611,60.401667],[23.833333,60.387222],[23.833333,60.576667]]]}},{"type":"Feature","properties":{"id":"EFD135A","name":"AHMOSUO","type":"D","upper":"FL 195","lower":"SFC","fill":"#ff8000","fill-opacity":0.5,"stroke":"#ff8000","stroke-width":1.5},"geometry":{"type":"Polygon","coordinates":[[[26.308333,64.996389],[26.311944,64.810556],[25.716667,64.883056],[25.708611,64.984722],[26.308333,64.996389]]]}},{"type":"Feature","properties":{"id":"EFD135B","name":"AHMOSUO","type":"D","upper":"FL 195","lower":"SFC","fill":"#ff8000","fill-opacity":0.5,"stroke":"#ff8000","stroke-width":1.5},"geometry":{"type":"Polygon","coordinates":[[[25.912222,65.143056],[26.308333,64.996389],[25.708611,64.984722],[25.912222,65.143056]]]}},{"type":"Feature","properties":{"id":"EFD136","name":"RAAHE-PATTIJOKI","type":"D","upper":"FL 195","lower":"SFC","fill":"#ff8000","fill-opacity":0.5,"stroke":"#ff8000","stroke-width":1.5},"geometry":{"type":"Polygon","coordinates":[[[24.662778,64.766944],[24.975833,64.511944],[24.984722,64.446667],[24.805,64.536111],[24.529722,64.663889],[24.662778,64.766944]]]}},{"type":"Feature","properties":{"id":"EFD137","name":"BOKSI","type":"D","upper":"FL 195","lower":"SFC","fill":"#ff8000","fill-opacity":0.5,"stroke":"#ff8000","stroke-width":1.5},"geometry":{"type":"Polygon","coordinates":[[[25.425833,60.364722],[25.505556,60.330278],[25.460556,60.29],[25.368611,60.286944],[25.425833,60.364722]]]}},{"type":"Feature","properties":{"id":"EFD138","name":"SANTIS","type":"D","upper":"FL 195","lower":"SFC","fill":"#ff8000","fill-opacity":0.5,"stroke":"#ff8000","stroke-width":1.5},"geometry":{"type":"Polygon","coordinates":[[[25.041944,60.155278],[25.116667,60.15],[25.180278,60.146944],[25.223611,60.125278],[25.194444,60.101111],[25.096944,60.112778],[24.996944,60.112778],[25.041944,60.155278]]]}},{"type":"Feature","properties":{"id":"EFD139A","name":"ARABIA","type":"D","upper":"FL 195","lower":"SFC","fill":"#ff8000","fill-opacity":0.5,"stroke":"#ff8000","stroke-width":1.5},"geometry":{"type":"Polygon","coordinates":[[[24.980833,60.217222],[25.0125,60.185556],[24.959444,60.153611],[24.906389,60.201389],[24.918333,60.206944],[24.926944,60.206111],[24.980833,60.217222]]]}},{"type":"Feature","properties":{"id":"EFD139B","name":"ARABIA","type":"D","upper":"FL 195","lower":"SFC","fill":"#ff8000","fill-opacity":0.5,"stroke":"#ff8000","stroke-width":1.5},"geometry":{"type":"Polygon","coordinates":[[[24.980833,60.217222],[25.013889,60.215],[25.0125,60.185556],[24.980833,60.217222]]]}},{"type":"Feature","properties":{"id":"EFD141A","name":"RÄYSKÄLÄ","type":"D","upper":"FL 195","lower":"SFC","fill":"#ff8000","fill-opacity":0.5,"stroke":"#ff8000","stroke-width":1.5},"geometry":{"type":"Polygon","coordinates":[[[24.170556,60.814722],[24.352222,60.654167],[24.270556,60.6],[24.063333,60.601667],[23.877222,60.650833],[23.843333,60.798889],[24.170556,60.814722]]]}},{"type":"Feature","properties":{"id":"EFD141B","name":"RÄYSKÄLÄ","type":"D","upper":"FL 195","lower":"SFC","fill":"#ff8000","fill-opacity":0.5,"stroke":"#ff8000","stroke-width":1.5},"geometry":{"type":"Polygon","coordinates":[[[23.851389,61.0925],[24.170556,60.814722],[23.843333,60.798889],[23.776389,61.087778],[23.851389,61.0925]]]}},{"type":"Feature","properties":{"id":"EFD141C","name":"RÄYSKÄLÄ","type":"D","upper":"FL 195","lower":"SFC","fill":"#ff8000","fill-opacity":0.5,"stroke":"#ff8000","stroke-width":1.5},"geometry":{"type":"Polygon","coordinates":[[[24.236667,61.167778],[24.431944,60.996667],[24.665,60.789722],[24.606389,60.774444],[24.485556,60.7425],[24.352222,60.654167],[24.170556,60.814722],[23.851389,61.0925],[23.917222,61.096667],[24.236667,61.167778]]]}},{"type":"Feature","properties":{"id":"EFD142","name":"JÄMIJÄRVI","type":"D","upper":"FL 195","lower":"SFC","fill":"#ff8000","fill-opacity":0.5,"stroke":"#ff8000","stroke-width":1.5},"geometry":{"type":"Polygon","coordinates":[[[22.771111,61.931111],[22.955833,61.781389],[22.796389,61.640556],[22.471667,61.731944],[22.479722,61.850278],[22.771111,61.931111]]]}},{"type":"Feature","properties":{"id":"EFD143","name":"HYPPY","type":"D","upper":"FL 195","lower":"SFC","fill":"#ff8000","fill-opacity":0.5,"stroke":"#ff8000","stroke-width":1.5},"geometry":{"type":"Polygon","coordinates":[[[25.03,60.283056],[25.134167,60.278056],[25.109444,60.208611],[24.980833,60.217222],[24.993889,60.2425],[25.03,60.283056]]]}},{"type":"Feature","properties":{"id":"EFD144A","name":"PUDASJÄRVI","type":"D","upper":"FL 195","lower":"SFC","fill":"#ff8000","fill-opacity":0.5,"stroke":"#ff8000","stroke-width":1.5},"geometry":{"type":"Polygon","coordinates":[[[27.344722,65.547778],[27.341389,65.207778],[26.404167,65.2375],[26.404167,65.274167],[27.344722,65.547778]]]}},{"type":"Feature","properties":{"id":"EFD144B","name":"PUDASJÄRVI","type":"D","upper":"FL 195","lower":"SFC","fill":"#ff8000","fill-opacity":0.5,"stroke":"#ff8000","stroke-width":1.5},"geometry":{"type":"Polygon","coordinates":[[[27.050556,65.706111],[27.344722,65.547778],[26.404167,65.274167],[26.404167,65.518611],[27.050556,65.706111]]]}},{"type":"Feature","properties":{"id":"EFD144C","name":"PUDASJÄRVI","type":"D","upper":"FL 195","lower":"SFC","fill":"#ff8000","fill-opacity":0.5,"stroke":"#ff8000","stroke-width":1.5},"geometry":{"type":"Polygon","coordinates":[[[27.441944,65.816944],[27.821944,65.682222],[27.344722,65.547778],[27.050556,65.706111],[27.441944,65.816944]]]}},{"type":"Feature","properties":{"id":"EFD144D","name":"PUDASJÄRVI","type":"D","upper":"FL 195","lower":"SFC","fill":"#ff8000","fill-opacity":0.5,"stroke":"#ff8000","stroke-width":1.5},"geometry":{"type":"Polygon","coordinates":[[[27.821944,65.682222],[28.0,65.617222],[28.0,65.183333],[27.341389,65.207778],[27.344722,65.547778],[27.821944,65.682222]]]}},{"type":"Feature","properties":{"id":"EFD145A","name":"RAUTAVAARA","type":"D","upper":"FL 195","lower":"SFC","fill":"#ff8000","fill-opacity":0.5,"stroke":"#ff8000","stroke-width":1.5},"geometry":{"type":"Polygon","coordinates":[[[28.021389,63.638056],[28.385,63.3825],[28.191944,63.309167],[27.916111,63.397222],[28.021389,63.638056]]]}},{"type":"Feature","properties":{"id":"EFD145B","name":"RAUTAVAARA","type":"D","upper":"FL 195","lower":"SFC","fill":"#ff8000","fill-opacity":0.5,"stroke":"#ff8000","stroke-width":1.5},"geometry":{"type":"Polygon","coordinates":[[[27.46,63.870556],[27.683056,63.871111],[28.021389,63.638056],[27.916111,63.397222],[27.611111,63.417222],[27.391111,63.375278],[27.4575,63.599722],[27.46,63.870556]]]}},{"type":"Feature","properties":{"id":"EFD146","name":"ALAVUS","type":"D","upper":"FL 195","lower":"SFC","fill":"#ff8000","fill-opacity":0.5,"stroke":"#ff8000","stroke-width":1.5},"geometry":{"type":"Polygon","coordinates":[[[23.441389,62.736944],[23.665833,62.628056],[23.551111,62.464722],[23.454722,62.533611],[23.441389,62.736944]]]}},{"type":"Feature","properties":{"id":"EFD147A","name":"KYMI","type":"D","upper":"FL 195","lower":"SFC","fill":"#ff8000","fill-opacity":0.5,"stroke":"#ff8000","stroke-width":1.5},"geometry":{"type":"Polygon","coordinates":[[[27.221111,60.670833],[27.213611,60.566944],[26.946944,60.466944],[26.743889,60.433333],[26.626667,60.608333],[27.221111,60.670833]]]}},{"type":"Feature","properties":{"id":"EFD147B","name":"KYMI","type":"D","upper":"FL 195","lower":"SFC","fill":"#ff8000","fill-opacity":0.5,"stroke":"#ff8000","stroke-width":1.5},"geometry":{"type":"Polygon","coordinates":[[[27.369722,60.744722],[27.393056,60.688333],[27.221111,60.670833],[26.626667,60.608333],[26.59,60.663056],[27.369722,60.744722]]]}},{"type":"Feature","properties":{"id":"EFD149","name":"KITEE","type":"D","upper":"FL 195","lower":"SFC","fill":"#ff8000","fill-opacity":0.5,"stroke":"#ff8000","stroke-width":1.5},"geometry":{"type":"Polygon","coordinates":[[[30.52,62.635556],[30.931111,62.564444],[29.749722,61.77],[29.789722,61.963611],[29.303333,62.129167],[29.389444,62.216667],[29.641667,62.365278],[30.071944,62.333333],[30.421111,62.431944],[30.551111,62.587778],[30.52,62.635556]]]}},{"type":"Feature","properties":{"id":"EFD151","name":"HANKONIEMI","type":"D","upper":"3000 FT MSL","lower":"SFC","fill":"#ff8000","fill-opacity":0.5,"stroke":"#ff8000","stroke-width":1.5},"geometry":{"type":"Polygon","coordinates":[[[23.25,59.964722],[23.25,59.828611],[23.13,59.823333],[22.905,59.813333],[22.905,59.883333],[23.25,59.964722]]]}},{"type":"Feature","properties":{"id":"EFD152A","name":"TAMMISAARI","type":"D","upper":"3000 FT MSL","lower":"SFC","fill":"#ff8000","fill-opacity":0.5,"stroke":"#ff8000","stroke-width":1.5},"geometry":{"type":"Polygon","coordinates":[[[23.400556,60.0],[23.475,59.968889],[23.380278,59.83],[23.28,59.83],[23.25,59.828611],[23.25,59.964722],[23.400556,60.0]]]}},{"type":"Feature","properties":{"id":"EFD152B","name":"TAMMISAARI","type":"D","upper":"3000 FT MSL","lower":"SFC","fill":"#ff8000","fill-opacity":0.5,"stroke":"#ff8000","stroke-width":1.5},"geometry":{"type":"Polygon","coordinates":[[[23.543333,60.044167],[23.630278,60.044167],[23.630278,59.828611],[23.530278,59.83],[23.380278,59.83],[23.475,59.968889],[23.400556,60.0],[23.543333,60.044167]]]}},{"type":"Feature","properties":{"id":"EFD153","name":"HÄLVÄLÄ","type":"D","upper":"5000 FT MSL","lower":"SFC","fill":"#ff8000","fill-opacity":0.5,"stroke":"#ff8000","stroke-width":1.5},"geometry":{"type":"Polygon","coordinates":[[[25.392778,61.033333],[25.547222,61.033333],[25.547222,60.966667],[25.392778,60.966667],[25.392778,61.033333]]]}},{"type":"Feature","properties":{"id":"EFD154","name":"UPINNIEMI","type":"D","upper":"1300 FT MSL","lower":"SFC","fill":"#ff8000","fill-opacity":0.5,"stroke":"#ff8000","stroke-width":1.5},"geometry":{"type":"Polygon","coordinates":[[[24.348056,60.123611],[24.488333,60.123611],[24.485278,59.941944],[24.403611,59.941944],[24.403611,60.0475],[24.302778,60.0475],[24.348056,60.123611]]]}},{"type":"Feature","properties":{"id":"EFD155A","name":"TOLKKINEN","type":"D","upper":"2500 FT MSL","lower":"SFC","fill":"#ff8000","fill-opacity":0.5,"stroke":"#ff8000","stroke-width":1.5},"geometry":{"type":"Polygon","coordinates":[[[25.763056,60.44],[25.792222,60.300556],[25.559444,60.293333],[25.666944,60.418333],[25.763056,60.44]]]}},{"type":"Feature","properties":{"id":"EFD155B","name":"TOLKKINEN","type":"D","upper":"2500 FT MSL","lower":"SFC","fill":"#ff8000","fill-opacity":0.5,"stroke":"#ff8000","stroke-width":1.5},"geometry":{"type":"Polygon","coordinates":[[[25.666944,60.418333],[25.497222,60.220278],[25.417778,60.288611],[25.460556,60.29],[25.505556,60.330278],[25.426944,60.364167],[25.666944,60.418333]]]}},{"type":"Feature","properties":{"id":"EFD155C","name":"TOLKKINEN","type":"D","upper":"2500 FT MSL","lower":"SFC","fill":"#ff8000","fill-opacity":0.5,"stroke":"#ff8000","stroke-width":1.5},"geometry":{"type":"Polygon","coordinates":[[[25.792222,60.300556],[25.813056,60.201111],[25.533333,60.188889],[25.497222,60.220278],[25.559444,60.293333],[25.792222,60.300556]]]}},{"type":"Feature","properties":{"id":"EFD157A","name":"PIEKSÄMÄKI","type":"D","upper":"FL 195","lower":"SFC","fill":"#ff8000","fill-opacity":0.5,"stroke":"#ff8000","stroke-width":1.5},"geometry":{"type":"Polygon","coordinates":[[[27.16,62.533056],[27.2175,62.306389],[27.165833,62.203611],[26.576389,62.120556],[27.16,62.533056]]]}},{"type":"Feature","properties":{"id":"EFD157B","name":"PIEKSÄMÄKI","type":"D","upper":"FL 195","lower":"SFC","fill":"#ff8000","fill-opacity":0.5,"stroke":"#ff8000","stroke-width":1.5},"geometry":{"type":"Polygon","coordinates":[[[27.16,62.533056],[26.576389,62.120556],[26.560833,62.410278],[27.16,62.533056]]]}},{"type":"Feature","properties":{"id":"EFD158","name":"LAPPEENRANTA","type":"D","upper":"2700 FT MSL","lower":"SFC","fill":"#ff8000","fill-opacity":0.5,"stroke":"#ff8000","stroke-width":1.5},"geometry":{"type":"Polygon","coordinates":[[[28.190278,61.041944],[28.201111,61.029722],[28.175833,61.024722],[28.165,61.036944],[28.190278,61.041944]]]}},{"type":"Feature","properties":{"id":"EFD159","name":"SANTAHAMINA","type":"D","upper":"3000 FT MSL","lower":"1300 FT MSL","fill":"#ff8000","fill-opacity":0.5,"stroke":"#ff8000","stroke-width":1.5},"geometry":{"type":"Polygon","coordinates":[[[25.039444,60.166667],[25.080556,60.166667],[25.080556,60.1525],[25.041944,60.155278],[25.019444,60.133889],[25.019167,60.1575],[25.039444,60.166667]]]}},{"type":"Feature","properties":{"id":"EFD160N","name":"BOTHNIA NORTH","type":"D","upper":"FL 660","lower":"FL 95","fill":"#ff8000","fill-opacity":0.5,"stroke":"#ff8000","stroke-width":1.5},"geometry":{"type":"Polygon","coordinates":[[[23.908611,65.374444],[24.414722,65.304722],[24.192222,65.111944],[24.220278,64.907778],[24.523056,64.666944],[23.890278,64.338056],[23.445,64.100278],[22.710833,64.040556],[21.961667,63.974722],[22.922222,64.681389],[23.908611,65.374444]]]}},{"type":"Feature","properties":{"id":"EFD160S","name":"BOTHNIA SOUTH","type":"D","upper":"FL 660","lower":"FL 95","fill":"#ff8000","fill-opacity":0.5,"stroke":"#ff8000","stroke-width":1.5},"geometry":{"type":"Polygon","coordinates":[[[22.710833,64.040556],[21.879167,63.485],[21.433056,63.605556],[21.5,63.616667],[21.961667,63.974722],[22.710833,64.040556]]]}},{"type":"Feature","properties":{"id":"EFD161A","name":"KYLÄJÄRVI","type":"D","upper":"FL 170","lower":"SFC","fill":"#ff8000","fill-opacity":0.5,"stroke":"#ff8000","stroke-width":1.5},"geometry":{"type":"Polygon","coordinates":[[[26.332222,67.5],[26.442222,67.5],[26.5275,67.466944],[26.551111,67.4325],[26.485,67.401667],[26.4625,67.417222],[26.4125,67.417222],[26.3625,67.425556],[26.3125,67.402222],[26.332222,67.5]]]}},{"type":"Feature","properties":{"id":"EFD161B","name":"KYLÄJÄRVI","type":"D","upper":"FL 170","lower":"SFC","fill":"#ff8000","fill-opacity":0.5,"stroke":"#ff8000","stroke-width":1.5},"geometry":{"type":"Polygon","coordinates":[[[26.442222,67.5],[26.548056,67.5],[26.5975,67.481667],[26.565556,67.439444],[26.551111,67.4325],[26.5275,67.466944],[26.442222,67.5]]]}},{"type":"Feature","properties":{"id":"EFD162A","name":"PAHKAJÄRVI","type":"D","upper":"FL 195","lower":"SFC","fill":"#ff8000","fill-opacity":0.5,"stroke":"#ff8000","stroke-width":1.5},"geometry":{"type":"Polygon","coordinates":[[[27.115278,61.1375],[27.200833,61.068333],[26.857778,61.030833],[26.870278,61.109444],[26.923333,61.084444],[26.978333,61.0975],[27.008611,61.118611],[27.036667,61.127778],[27.115278,61.1375]]]}},{"type":"Feature","properties":{"id":"EFD162B","name":"PAHKAJÄRVI","type":"D","upper":"FL 195","lower":"SFC","fill":"#ff8000","fill-opacity":0.5,"stroke":"#ff8000","stroke-width":1.5},"geometry":{"type":"Polygon","coordinates":[[[26.876111,61.137778],[26.870278,61.109444],[26.857778,61.030833],[26.722222,61.015556],[26.691111,61.135],[26.876111,61.137778]]]}},{"type":"Feature","properties":{"id":"EFD162C","name":"PAHKAJÄRVI","type":"D","upper":"3500 FT MSL","lower":"SFC","fill":"#ff8000","fill-opacity":0.5,"stroke":"#ff8000","stroke-width":1.5},"geometry":{"type":"Polygon","coordinates":[[[27.215278,61.262222],[27.414722,61.088333],[27.200833,61.068333],[27.115278,61.1375],[27.096667,61.206389],[27.071389,61.23],[27.215278,61.262222]]]}},{"type":"Feature","properties":{"id":"EFD162D","name":"PAHKAJÄRVI","type":"D","upper":"FL 195","lower":"SFC","fill":"#ff8000","fill-opacity":0.5,"stroke":"#ff8000","stroke-width":1.5},"geometry":{"type":"Polygon","coordinates":[[[26.876667,61.347222],[27.211111,61.331389],[27.215278,61.262222],[27.071389,61.23],[26.875833,61.23],[26.876667,61.347222]]]}},{"type":"Feature","properties":{"id":"EFD162E","name":"PAHKAJÄRVI","type":"D","upper":"FL 195","lower":"SFC","fill":"#ff8000","fill-opacity":0.5,"stroke":"#ff8000","stroke-width":1.5},"geometry":{"type":"Polygon","coordinates":[[[26.876667,61.347222],[26.875833,61.23],[26.876111,61.137778],[26.691111,61.135],[26.682222,61.341389],[26.876667,61.347222]]]}},{"type":"Feature","properties":{"id":"EFD163A","name":"VUOSANKA","type":"D","upper":"4500 FT MSL","lower":"SFC","fill":"#ff8000","fill-opacity":0.5,"stroke":"#ff8000","stroke-width":1.5},"geometry":{"type":"Polygon","coordinates":[[[28.889167,64.488056],[28.916111,64.274722],[28.691389,64.279167],[28.608056,64.5],[28.889167,64.488056]]]}},{"type":"Feature","properties":{"id":"EFD163B","name":"VUOSANKA","type":"D","upper":"4500 FT MSL","lower":"SFC","fill":"#ff8000","fill-opacity":0.5,"stroke":"#ff8000","stroke-width":1.5},"geometry":{"type":"Polygon","coordinates":[[[29.0225,64.488889],[29.268333,64.436667],[29.349167,64.313333],[28.916111,64.274722],[28.889167,64.488056],[29.0225,64.488889]]]}},{"type":"Feature","properties":{"id":"EFD164A","name":"ORIPÄÄ","type":"D","upper":"FL 195","lower":"SFC","fill":"#ff8000","fill-opacity":0.5,"stroke":"#ff8000","stroke-width":1.5},"geometry":{"type":"Polygon","coordinates":[[[22.438333,60.886389],[22.458056,61.011944],[22.586667,60.980278],[22.438333,60.886389]]]}},{"type":"Feature","properties":{"id":"EFD164B","name":"ORIPÄÄ","type":"D","upper":"FL 195","lower":"SFC","fill":"#ff8000","fill-opacity":0.5,"stroke":"#ff8000","stroke-width":1.5},"geometry":{"type":"Polygon","coordinates":[[[22.438333,60.886389],[22.586667,60.980278],[22.685,60.955556],[22.736667,60.990833],[23.024444,60.870278],[22.880556,60.771667],[22.420278,60.773611],[22.438333,60.886389]]]}},{"type":"Feature","properties":{"id":"EFD164C","name":"ORIPÄÄ","type":"D","upper":"FL 195","lower":"SFC","fill":"#ff8000","fill-opacity":0.5,"stroke":"#ff8000","stroke-width":1.5},"geometry":{"type":"Polygon","coordinates":[[[22.531667,61.116389],[22.736667,60.990833],[22.685,60.955556],[22.586667,60.980278],[22.458056,61.011944],[22.438333,61.031389],[22.477222,61.061111],[22.531667,61.116389]]]}},{"type":"Feature","properties":{"id":"EFD164D","name":"ORIPÄÄ","type":"D","upper":"FL 195","lower":"SFC","fill":"#ff8000","fill-opacity":0.5,"stroke":"#ff8000","stroke-width":1.5},"geometry":{"type":"Polygon","coordinates":[[[22.598333,61.176667],[22.894167,61.096111],[22.736667,60.990833],[22.531667,61.116389],[22.598333,61.176667]]]}},{"type":"Feature","properties":{"id":"EFD164E","name":"ORIPÄÄ","type":"D","upper":"FL 195","lower":"SFC","fill":"#ff8000","fill-opacity":0.5,"stroke":"#ff8000","stroke-width":1.5},"geometry":{"type":"Polygon","coordinates":[[[22.894167,61.096111],[23.071667,61.0475],[23.301667,61.058611],[23.024444,60.870278],[22.736667,60.990833],[22.894167,61.096111]]]}},{"type":"Feature","properties":{"id":"EFD164F","name":"ORIPÄÄ","type":"D","upper":"FL 195","lower":"SFC","fill":"#ff8000","fill-opacity":0.5,"stroke":"#ff8000","stroke-width":1.5},"geometry":{"type":"Polygon","coordinates":[[[22.420278,60.773611],[22.880556,60.771667],[22.820833,60.730556],[22.414444,60.736111],[22.420278,60.773611]]]}},{"type":"Feature","properties":{"id":"EFD164G","name":"ORIPÄÄ","type":"D","upper":"FL 195","lower":"SFC","fill":"#ff8000","fill-opacity":0.5,"stroke":"#ff8000","stroke-width":1.5},"geometry":{"type":"Polygon","coordinates":[[[22.880556,60.771667],[23.165556,60.634444],[23.030833,60.629722],[22.820833,60.730556],[22.880556,60.771667]]]}},{"type":"Feature","properties":{"id":"EFD165","name":"RAASI","type":"D","upper":"3500 FT MSL","lower":"SFC","fill":"#ff8000","fill-opacity":0.5,"stroke":"#ff8000","stroke-width":1.5},"geometry":{"type":"Polygon","coordinates":[[[22.252778,60.898889],[22.438333,60.886389],[22.420278,60.773611],[22.181111,60.775],[22.252778,60.898889]]]}},{"type":"Feature","properties":{"id":"EFD166","name":"PYHÄJÄRVI","type":"D","upper":"3500 FT (as written)","lower":"SFC","fill":"#ff8000","fill-opacity":0.5,"stroke":"#ff8000","stroke-width":1.5},"geometry":{"type":"Polygon","coordinates":[[[22.153056,61.103611],[22.210833,61.104167],[22.255556,61.079167],[22.316389,61.105833],[22.315833,61.031389],[22.458056,61.011944],[22.438333,60.886389],[22.252778,60.898889],[22.135833,61.055833],[22.153056,61.103611]]]}},{"type":"Feature","properties":{"id":"EFD300","name":"ITÄINEN VAARA-ALUE (inner boundary only)","type":"D","upper":"1000 FT SFC","lower":"SFC","stroke":"#ff8000","stroke-width":2.5},"geometry":{"type":"LineString","coordinates":[[27.293056,60.200278],[27.213611,60.200278],[26.763611,60.200278],[26.791667,60.263056],[27.180278,60.266944],[27.363611,60.283611],[27.496944,60.366944],[27.496944,60.450278],[27.753611,60.724444],[28.501111,60.983333],[28.664722,61.058333],[28.787222,61.144167],[28.908889,61.178889],[29.040833,61.229444],[29.113611,61.253333],[29.113611,61.432222],[29.165556,61.558889],[29.541111,61.635],[29.749722,61.77],[30.931111,62.564444],[31.242222,62.887222],[29.607778,63.736111],[30.157778,64.057778],[29.759722,64.346111],[29.2775,64.978333],[29.414444,65.605556],[30.045556,65.738611],[29.906111,66.040278],[29.340278,66.263333],[28.601944,66.938333],[29.598889,67.636111],[28.333333,68.102778],[28.023889,68.59],[28.295833,68.683889],[28.229167,68.783889],[27.995833,68.867222],[28.071111,68.978056],[28.703056,69.171111],[28.823333,69.171944],[28.818056,69.159722]]}}]}